<?xml version='1.0' encoding='utf-8'?>
<q:quakeml xmlns="http://quakeml.org/xmlns/bed/1.2" xmlns:q="http://quakeml.org/xmlns/quakeml/1.2" xmlns:ns0="http://anss.org/xmlns/catalog/0.1">
  <eventParameters publicID="smi:local/a49374eb-2b36-4e00-8e11-3ce400d7c380">
    <event publicID="quakeml:uw.anss.org/Event/UW/62072261" ns0:datasource="uw" ns0:dataid="uw62072261" ns0:eventsource="uw" ns0:eventid="62072261">
      <preferredOriginID>quakeml:uw.anss.org/Origin/UW/3307393</preferredOriginID>
      <preferredMagnitudeID>quakeml:uw.anss.org/Netmag/UW/3335353</preferredMagnitudeID>
      <type>other event</type>
      <creationInfo>
        <agencyID>UW</agencyID>
        <creationTime>2025-01-26T06:42:24.000000Z</creationTime>
        <version>2</version>
      </creationInfo>
      <origin publicID="quakeml:uw.anss.org/Origin/UW/3307393" ns0:datasource="uw" ns0:dataid="uw62072261" ns0:eventsource="uw" ns0:eventid="62072261">
        <time>
          <value>2025-01-25T13:33:29.470000Z</value>
        </time>
        <latitude>
          <value>48.76916666666666</value>
        </latitude>
        <longitude>
          <value>-121.866</value>
        </longitude>
        <depth>
          <value>-680.0</value>
          <uncertainty>31610.0</uncertainty>
        </depth>
        <depthType>operator assigned</depthType>
        <timeFixed>false</timeFixed>
        <epicenterFixed>false</epicenterFixed>
        <methodID>smi:uw.anss.org/origin/HYP2000</methodID>
        <quality>
          <associatedPhaseCount>6</associatedPhaseCount>
          <usedPhaseCount>5</usedPhaseCount>
          <associatedStationCount>6</associatedStationCount>
          <usedStationCount>5</usedStationCount>
          <standardError>0.05</standardError>
          <azimuthalGap>154.0</azimuthalGap>
          <secondaryAzimuthalGap>513.0</secondaryAzimuthalGap>
          <minimumDistance>0.04773</minimumDistance>
          <maximumDistance>0.3951</maximumDistance>
          <medianDistance>0.2408</medianDistance>
        </quality>
        <type>hypocenter</type>
        <evaluationMode>manual</evaluationMode>
        <evaluationStatus>final</evaluationStatus>
        <creationInfo>
          <agencyID>UW</agencyID>
          <creationTime>2025-01-26T06:36:57.000000Z</creationTime>
        </creationInfo>
        <originUncertainty>
          <preferredDescription>confidence ellipsoid</preferredDescription>
          <horizontalUncertainty>440.0</horizontalUncertainty>
          <confidenceLevel>95.0</confidenceLevel>
          <confidenceEllipsoid>
            <semiMajorAxisLength>75864.0</semiMajorAxisLength>
            <semiMinorAxisLength>840.0</semiMinorAxisLength>
            <semiIntermediateAxisLength>1056.0</semiIntermediateAxisLength>
            <majorAxisPlunge>90.0</majorAxisPlunge>
            <majorAxisAzimuth>0.0</majorAxisAzimuth>
            <majorAxisRotation>323.0</majorAxisRotation>
          </confidenceEllipsoid>
        </originUncertainty>
        <arrival publicID="quakeml:uw.anss.org/AssocArO/UW/17571993">
          <pickID>quakeml:uw.anss.org/Arrival/UW/17571993</pickID>
          <phase>P</phase>
          <timeCorrection>0.17</timeCorrection>
          <azimuth>311.58328449552937</azimuth>
          <distance>0.04773</distance>
          <takeoffAngle>
            <value>90.0</value>
          </takeoffAngle>
          <timeResidual>0.02</timeResidual>
          <timeWeight>0.17</timeWeight>
          <creationInfo>
            <agencyID>UW</agencyID>
            <creationTime>2025-01-26T06:42:24.000000Z</creationTime>
          </creationInfo>
        </arrival>
        <arrival publicID="quakeml:uw.anss.org/AssocArO/UW/17571998">
          <pickID>quakeml:uw.anss.org/Arrival/UW/17571998</pickID>
          <phase>P</phase>
          <timeCorrection>0.07</timeCorrection>
          <azimuth>56.0100188541615</azimuth>
          <distance>0.1504</distance>
          <takeoffAngle>
            <value>90.0</value>
          </takeoffAngle>
          <timeResidual>-0.02</timeResidual>
          <timeWeight>0.11</timeWeight>
          <creationInfo>
            <agencyID>UW</agencyID>
            <creationTime>2025-01-26T06:42:24.000000Z</creationTime>
          </creationInfo>
        </arrival>
        <arrival publicID="quakeml:uw.anss.org/AssocArO/UW/17572003">
          <pickID>quakeml:uw.anss.org/Arrival/UW/17572003</pickID>
          <phase>P</phase>
          <timeCorrection>0.1</timeCorrection>
          <azimuth>246.28711561686006</azimuth>
          <distance>0.2133</distance>
          <takeoffAngle>
            <value>90.0</value>
          </takeoffAngle>
          <timeResidual>-0.07</timeResidual>
          <timeWeight>0.11</timeWeight>
          <creationInfo>
            <agencyID>UW</agencyID>
            <creationTime>2025-01-26T06:42:24.000000Z</creationTime>
          </creationInfo>
        </arrival>
        <arrival publicID="quakeml:uw.anss.org/AssocArO/UW/17572008">
          <pickID>quakeml:uw.anss.org/Arrival/UW/17572008</pickID>
          <phase>P</phase>
          <timeCorrection>0.0</timeCorrection>
          <azimuth>209.35842155811534</azimuth>
          <distance>0.2684</distance>
          <takeoffAngle>
            <value>57.0</value>
          </takeoffAngle>
          <timeResidual>0.07</timeResidual>
          <timeWeight>0.11</timeWeight>
          <creationInfo>
            <agencyID>UW</agencyID>
            <creationTime>2025-01-26T06:42:24.000000Z</creationTime>
          </creationInfo>
        </arrival>
        <arrival publicID="quakeml:uw.anss.org/AssocArO/UW/17572013">
          <pickID>quakeml:uw.anss.org/Arrival/UW/17572013</pickID>
          <phase>P</phase>
          <timeCorrection>0.27</timeCorrection>
          <azimuth>327.9095218077419</azimuth>
          <distance>0.2712</distance>
          <takeoffAngle>
            <value>57.0</value>
          </takeoffAngle>
          <timeResidual>0.28</timeResidual>
          <timeWeight>0.01</timeWeight>
          <creationInfo>
            <agencyID>UW</agencyID>
            <creationTime>2025-01-26T06:42:24.000000Z</creationTime>
          </creationInfo>
        </arrival>
        <arrival publicID="quakeml:uw.anss.org/AssocArO/UW/17572018">
          <pickID>quakeml:uw.anss.org/Arrival/UW/17572018</pickID>
          <phase>P</phase>
          <timeCorrection>0.14</timeCorrection>
          <azimuth>145.18318773820585</azimuth>
          <distance>0.3951</distance>
          <takeoffAngle>
            <value>57.0</value>
          </takeoffAngle>
          <timeResidual>-0.96</timeResidual>
          <timeWeight>0.0</timeWeight>
          <creationInfo>
            <agencyID>UW</agencyID>
            <creationTime>2025-01-26T06:42:24.000000Z</creationTime>
          </creationInfo>
        </arrival>
      </origin>
      <magnitude publicID="quakeml:uw.anss.org/Netmag/UW/3335353">
        <mag>
          <value>1.31</value>
          <uncertainty>0.061631524810129124</uncertainty>
        </mag>
        <type>Ml</type>
        <originID>quakeml:uw.anss.org/Origin/UW/3307393</originID>
        <methodID>smi:uw.anss.org/magnitude/RichterMl2</methodID>
        <stationCount>5</stationCount>
        <azimuthalGap>89.17316888404434</azimuthalGap>
        <evaluationMode>manual</evaluationMode>
        <evaluationStatus>reviewed</evaluationStatus>
        <stationMagnitudeContribution>
          <stationMagnitudeID>quakeml:uw.anss.org/AssocAmM/UW/16304413</stationMagnitudeID>
          <weight>1.0</weight>
          <residual>0.07</residual>
        </stationMagnitudeContribution>
        <stationMagnitudeContribution>
          <stationMagnitudeID>quakeml:uw.anss.org/AssocAmM/UW/16304393</stationMagnitudeID>
          <weight>1.0</weight>
          <residual>-0.05</residual>
        </stationMagnitudeContribution>
        <stationMagnitudeContribution>
          <stationMagnitudeID>quakeml:uw.anss.org/AssocAmM/UW/16304403</stationMagnitudeID>
          <weight>1.0</weight>
          <residual>0.04</residual>
        </stationMagnitudeContribution>
        <stationMagnitudeContribution>
          <stationMagnitudeID>quakeml:uw.anss.org/AssocAmM/UW/16304378</stationMagnitudeID>
          <weight>1.0</weight>
          <residual>-0.03</residual>
        </stationMagnitudeContribution>
        <stationMagnitudeContribution>
          <stationMagnitudeID>quakeml:uw.anss.org/AssocAmM/UW/16304383</stationMagnitudeID>
          <weight>1.0</weight>
          <residual>0.04</residual>
        </stationMagnitudeContribution>
        <stationMagnitudeContribution>
          <stationMagnitudeID>quakeml:uw.anss.org/AssocAmM/UW/16304363</stationMagnitudeID>
          <weight>0.0</weight>
          <residual>-0.7</residual>
        </stationMagnitudeContribution>
        <stationMagnitudeContribution>
          <stationMagnitudeID>quakeml:uw.anss.org/AssocAmM/UW/16304408</stationMagnitudeID>
          <weight>1.0</weight>
          <residual>0.09</residual>
        </stationMagnitudeContribution>
        <stationMagnitudeContribution>
          <stationMagnitudeID>quakeml:uw.anss.org/AssocAmM/UW/16304388</stationMagnitudeID>
          <weight>1.0</weight>
          <residual>0.17</residual>
        </stationMagnitudeContribution>
        <stationMagnitudeContribution>
          <stationMagnitudeID>quakeml:uw.anss.org/AssocAmM/UW/16304423</stationMagnitudeID>
          <weight>1.0</weight>
          <residual>0.13</residual>
        </stationMagnitudeContribution>
        <stationMagnitudeContribution>
          <stationMagnitudeID>quakeml:uw.anss.org/AssocAmM/UW/16304428</stationMagnitudeID>
          <weight>1.0</weight>
          <residual>-0.05</residual>
        </stationMagnitudeContribution>
        <stationMagnitudeContribution>
          <stationMagnitudeID>quakeml:uw.anss.org/AssocAmM/UW/16304438</stationMagnitudeID>
          <weight>1.0</weight>
          <residual>0.15</residual>
        </stationMagnitudeContribution>
        <stationMagnitudeContribution>
          <stationMagnitudeID>quakeml:uw.anss.org/AssocAmM/UW/16304358</stationMagnitudeID>
          <weight>0.0</weight>
          <residual>-0.74</residual>
        </stationMagnitudeContribution>
        <stationMagnitudeContribution>
          <stationMagnitudeID>quakeml:uw.anss.org/AssocAmM/UW/16304418</stationMagnitudeID>
          <weight>1.0</weight>
          <residual>-0.06</residual>
        </stationMagnitudeContribution>
        <stationMagnitudeContribution>
          <stationMagnitudeID>quakeml:uw.anss.org/AssocAmM/UW/16304373</stationMagnitudeID>
          <weight>1.0</weight>
          <residual>-0.03</residual>
        </stationMagnitudeContribution>
        <stationMagnitudeContribution>
          <stationMagnitudeID>quakeml:uw.anss.org/AssocAmM/UW/16304368</stationMagnitudeID>
          <weight>0.0</weight>
          <residual>-0.69</residual>
        </stationMagnitudeContribution>
        <stationMagnitudeContribution>
          <stationMagnitudeID>quakeml:uw.anss.org/AssocAmM/UW/16304433</stationMagnitudeID>
          <weight>1.0</weight>
          <residual>-0.07</residual>
        </stationMagnitudeContribution>
        <stationMagnitudeContribution>
          <stationMagnitudeID>quakeml:uw.anss.org/AssocAmM/UW/16304398</stationMagnitudeID>
          <weight>1.0</weight>
          <residual>-0.09</residual>
        </stationMagnitudeContribution>
        <creationInfo>
          <agencyID>UW</agencyID>
          <creationTime>2025-01-26T06:42:24.000000Z</creationTime>
        </creationInfo>
      </magnitude>
      <stationMagnitude publicID="quakeml:uw.anss.org/AssocAmM/UW/16304358">
        <originID>quakeml:uw.anss.org/Origin/UW/3307393</originID>
        <mag>
          <value>0.57</value>
        </mag>
        <type>ML</type>
        <amplitudeID>quakeml:uw.anss.org/Amp/UW/16304358</amplitudeID>
        <waveformID networkCode="UW" stationCode="MBW2" locationCode="" channelCode="ENE"></waveformID>
      </stationMagnitude>
      <stationMagnitude publicID="quakeml:uw.anss.org/AssocAmM/UW/16304363">
        <originID>quakeml:uw.anss.org/Origin/UW/3307393</originID>
        <mag>
          <value>0.61</value>
        </mag>
        <type>ML</type>
        <amplitudeID>quakeml:uw.anss.org/Amp/UW/16304363</amplitudeID>
        <waveformID networkCode="UW" stationCode="MBW2" locationCode="" channelCode="HHN"></waveformID>
      </stationMagnitude>
      <stationMagnitude publicID="quakeml:uw.anss.org/AssocAmM/UW/16304368">
        <originID>quakeml:uw.anss.org/Origin/UW/3307393</originID>
        <mag>
          <value>0.62</value>
        </mag>
        <type>ML</type>
        <amplitudeID>quakeml:uw.anss.org/Amp/UW/16304368</amplitudeID>
        <waveformID networkCode="UW" stationCode="MBW2" locationCode="" channelCode="HHE"></waveformID>
      </stationMagnitude>
      <stationMagnitude publicID="quakeml:uw.anss.org/AssocAmM/UW/16304373">
        <originID>quakeml:uw.anss.org/Origin/UW/3307393</originID>
        <mag>
          <value>1.28</value>
        </mag>
        <type>ML</type>
        <amplitudeID>quakeml:uw.anss.org/Amp/UW/16304373</amplitudeID>
        <waveformID networkCode="UW" stationCode="SHUK" locationCode="" channelCode="HHN"></waveformID>
      </stationMagnitude>
      <stationMagnitude publicID="quakeml:uw.anss.org/AssocAmM/UW/16304378">
        <originID>quakeml:uw.anss.org/Origin/UW/3307393</originID>
        <mag>
          <value>1.28</value>
        </mag>
        <type>ML</type>
        <amplitudeID>quakeml:uw.anss.org/Amp/UW/16304378</amplitudeID>
        <waveformID networkCode="UW" stationCode="SHUK" locationCode="" channelCode="HHE"></waveformID>
      </stationMagnitude>
      <stationMagnitude publicID="quakeml:uw.anss.org/AssocAmM/UW/16304383">
        <originID>quakeml:uw.anss.org/Origin/UW/3307393</originID>
        <mag>
          <value>1.35</value>
        </mag>
        <type>ML</type>
        <amplitudeID>quakeml:uw.anss.org/Amp/UW/16304383</amplitudeID>
        <waveformID networkCode="UW" stationCode="SAXON" locationCode="" channelCode="HHN"></waveformID>
      </stationMagnitude>
      <stationMagnitude publicID="quakeml:uw.anss.org/AssocAmM/UW/16304388">
        <originID>quakeml:uw.anss.org/Origin/UW/3307393</originID>
        <mag>
          <value>1.48</value>
        </mag>
        <type>ML</type>
        <amplitudeID>quakeml:uw.anss.org/Amp/UW/16304388</amplitudeID>
        <waveformID networkCode="UW" stationCode="SAXON" locationCode="" channelCode="HHE"></waveformID>
      </stationMagnitude>
      <stationMagnitude publicID="quakeml:uw.anss.org/AssocAmM/UW/16304393">
        <originID>quakeml:uw.anss.org/Origin/UW/3307393</originID>
        <mag>
          <value>1.26</value>
        </mag>
        <type>ML</type>
        <amplitudeID>quakeml:uw.anss.org/Amp/UW/16304393</amplitudeID>
        <waveformID networkCode="UW" stationCode="MULN" locationCode="" channelCode="ENN"></waveformID>
      </stationMagnitude>
      <stationMagnitude publicID="quakeml:uw.anss.org/AssocAmM/UW/16304398">
        <originID>quakeml:uw.anss.org/Origin/UW/3307393</originID>
        <mag>
          <value>1.22</value>
        </mag>
        <type>ML</type>
        <amplitudeID>quakeml:uw.anss.org/Amp/UW/16304398</amplitudeID>
        <waveformID networkCode="UW" stationCode="MULN" locationCode="" channelCode="ENE"></waveformID>
      </stationMagnitude>
      <stationMagnitude publicID="quakeml:uw.anss.org/AssocAmM/UW/16304403">
        <originID>quakeml:uw.anss.org/Origin/UW/3307393</originID>
        <mag>
          <value>1.35</value>
        </mag>
        <type>ML</type>
        <amplitudeID>quakeml:uw.anss.org/Amp/UW/16304403</amplitudeID>
        <waveformID networkCode="UW" stationCode="MULN" locationCode="" channelCode="HHN"></waveformID>
      </stationMagnitude>
      <stationMagnitude publicID="quakeml:uw.anss.org/AssocAmM/UW/16304408">
        <originID>quakeml:uw.anss.org/Origin/UW/3307393</originID>
        <mag>
          <value>1.4</value>
        </mag>
        <type>ML</type>
        <amplitudeID>quakeml:uw.anss.org/Amp/UW/16304408</amplitudeID>
        <waveformID networkCode="UW" stationCode="MULN" locationCode="" channelCode="HHE"></waveformID>
      </stationMagnitude>
      <stationMagnitude publicID="quakeml:uw.anss.org/AssocAmM/UW/16304413">
        <originID>quakeml:uw.anss.org/Origin/UW/3307393</originID>
        <mag>
          <value>1.38</value>
        </mag>
        <type>ML</type>
        <amplitudeID>quakeml:uw.anss.org/Amp/UW/16304413</amplitudeID>
        <waveformID networkCode="UW" stationCode="PASS" locationCode="" channelCode="ENN"></waveformID>
      </stationMagnitude>
      <stationMagnitude publicID="quakeml:uw.anss.org/AssocAmM/UW/16304418">
        <originID>quakeml:uw.anss.org/Origin/UW/3307393</originID>
        <mag>
          <value>1.25</value>
        </mag>
        <type>ML</type>
        <amplitudeID>quakeml:uw.anss.org/Amp/UW/16304418</amplitudeID>
        <waveformID networkCode="UW" stationCode="PASS" locationCode="" channelCode="ENE"></waveformID>
      </stationMagnitude>
      <stationMagnitude publicID="quakeml:uw.anss.org/AssocAmM/UW/16304423">
        <originID>quakeml:uw.anss.org/Origin/UW/3307393</originID>
        <mag>
          <value>1.44</value>
        </mag>
        <type>ML</type>
        <amplitudeID>quakeml:uw.anss.org/Amp/UW/16304423</amplitudeID>
        <waveformID networkCode="UW" stationCode="PASS" locationCode="" channelCode="HHN"></waveformID>
      </stationMagnitude>
      <stationMagnitude publicID="quakeml:uw.anss.org/AssocAmM/UW/16304428">
        <originID>quakeml:uw.anss.org/Origin/UW/3307393</originID>
        <mag>
          <value>1.26</value>
        </mag>
        <type>ML</type>
        <amplitudeID>quakeml:uw.anss.org/Amp/UW/16304428</amplitudeID>
        <waveformID networkCode="UW" stationCode="PASS" locationCode="" channelCode="HHE"></waveformID>
      </stationMagnitude>
      <stationMagnitude publicID="quakeml:uw.anss.org/AssocAmM/UW/16304433">
        <originID>quakeml:uw.anss.org/Origin/UW/3307393</originID>
        <mag>
          <value>1.24</value>
        </mag>
        <type>ML</type>
        <amplitudeID>quakeml:uw.anss.org/Amp/UW/16304433</amplitudeID>
        <waveformID networkCode="UW" stationCode="RPW2" locationCode="" channelCode="HHN"></waveformID>
      </stationMagnitude>
      <stationMagnitude publicID="quakeml:uw.anss.org/AssocAmM/UW/16304438">
        <originID>quakeml:uw.anss.org/Origin/UW/3307393</originID>
        <mag>
          <value>1.46</value>
        </mag>
        <type>ML</type>
        <amplitudeID>quakeml:uw.anss.org/Amp/UW/16304438</amplitudeID>
        <waveformID networkCode="UW" stationCode="RPW2" locationCode="" channelCode="HHE"></waveformID>
      </stationMagnitude>
      <pick publicID="quakeml:uw.anss.org/Arrival/UW/17571993">
        <time>
          <value>2025-01-25T13:33:30.640000Z</value>
          <uncertainty>0.06</uncertainty>
        </time>
        <waveformID networkCode="UW" stationCode="MBW2" locationCode="" channelCode="HHZ"></waveformID>
        <onset>impulsive</onset>
        <polarity>negative</polarity>
        <evaluationMode>manual</evaluationMode>
        <evaluationStatus>reviewed</evaluationStatus>
        <creationInfo>
          <agencyID>UW</agencyID>
          <creationTime>2025-01-26T06:42:24.000000Z</creationTime>
        </creationInfo>
      </pick>
      <pick publicID="quakeml:uw.anss.org/Arrival/UW/17571998">
        <time>
          <value>2025-01-25T13:33:32.610000Z</value>
          <uncertainty>0.15</uncertainty>
        </time>
        <waveformID networkCode="UW" stationCode="SHUK" locationCode="" channelCode="HHZ"></waveformID>
        <onset>emergent</onset>
        <polarity>undecidable</polarity>
        <evaluationMode>manual</evaluationMode>
        <evaluationStatus>reviewed</evaluationStatus>
