<?xml version="1.0" encoding="UTF-8"?>

<q:quakeml xmlns:q="http://quakeml.org/xmlns/quakeml/1.2" xmlns="http://quakeml.org/xmlns/bed/1.2" xmlns:catalog="http://anss.org/xmlns/catalog/0.1">
 <eventParameters publicID="quakeml:uw.anss.org/Event/UW/62063601#174129485038">
  <creationInfo>
   <agencyID>UW</agencyID>
   <creationTime>2025-03-06T21:00:50.38</creationTime>
  </creationInfo>
  <event publicID="quakeml:uw.anss.org/Event/UW/62063601" catalog:datasource="uw" catalog:dataid="uw62063601" catalog:eventsource="uw" catalog:eventid="62063601">
   <preferredOriginID>quakeml:uw.anss.org/Origin/UW/3299688</preferredOriginID>
   <preferredMagnitudeID>quakeml:uw.anss.org/Netmag/UW/3324448</preferredMagnitudeID>
   <creationInfo>
    <agencyID>UW</agencyID>
    <creationTime>2024-12-02T22:34:33.00</creationTime>
    <version>2</version>
   </creationInfo>
   <type>other event</type>
   <origin publicID="quakeml:uw.anss.org/Origin/UW/3299688" catalog:datasource="uw" catalog:dataid="uw62063601" catalog:eventsource="uw" catalog:eventid="62063601">
    <time>
     <value>2024-12-02T09:37:53.85</value>
    </time>
    <timeFixed>0</timeFixed>
    <latitude>
     <value>48.8008</value>
    </latitude>
    <longitude>
     <value>-121.9201</value>
    </longitude>
    <epicenterFixed>0</epicenterFixed>
    <depth>
     <value>-465.894</value>
    </depth>
    <depthType>operator assigned</depthType>
    <type>hypocenter</type>
    <evaluationMode>manual</evaluationMode>
    <evaluationStatus>reviewed</evaluationStatus>
    <quality>
     <associatedPhaseCount>0</associatedPhaseCount>
     <usedPhaseCount>0</usedPhaseCount>
     <associatedStationCount>25</associatedStationCount>
     <usedStationCount>0</usedStationCount>
     <secondaryAzimuthalGap>411</secondaryAzimuthalGap>
     <minimumDistance>1.981e-01</minimumDistance>
     <medianDistance>1.970e+00</medianDistance>
     <maximumDistance>6.740e+00</maximumDistance>
    </quality>
    <creationInfo>
     <agencyID>UW</agencyID>
     <creationTime>2024-12-02T22:33:15.00</creationTime>
    </creationInfo>
    <methodID>smi:uw.anss.org/origin/HAND</methodID>
    <arrival publicID="quakeml:uw.anss.org/AssocArO/UW/17465443">
     <pickID>quakeml:uw.anss.org/Arrival/UW/17465443</pickID>
     <phase>P</phase>
     <distance>5.095e-05</distance>
     <creationInfo>
      <agencyID>UW</agencyID>
      <creationTime>2024-12-02T22:34:33.00</creationTime>
     </creationInfo>
    </arrival>
    <arrival publicID="quakeml:uw.anss.org/AssocArO/UW/17465448">
     <pickID>quakeml:uw.anss.org/Arrival/UW/17465448</pickID>
     <phase>P</phase>
     <distance>1.981e-01</distance>
     <creationInfo>
      <agencyID>UW</agencyID>
      <creationTime>2024-12-02T22:34:33.00</creationTime>
     </creationInfo>
    </arrival>
    <arrival publicID="quakeml:uw.anss.org/AssocArO/UW/17465453">
     <pickID>quakeml:uw.anss.org/Arrival/UW/17465453</pickID>
     <phase>P</phase>
     <distance>2.257e-01</distance>
     <creationInfo>
      <agencyID>UW</agencyID>
      <creationTime>2024-12-02T22:34:33.00</creationTime>
     </creationInfo>
    </arrival>
    <arrival publicID="quakeml:uw.anss.org/AssocArO/UW/17465458">
     <pickID>quakeml:uw.anss.org/Arrival/UW/17465458</pickID>
     <phase>P</phase>
     <distance>2.719e-01</distance>
     <creationInfo>
      <agencyID>UW</agencyID>
      <creationTime>2024-12-02T22:34:33.00</creationTime>
     </creationInfo>
    </arrival>
    <arrival publicID="quakeml:uw.anss.org/AssocArO/UW/17465463">
     <pickID>quakeml:uw.anss.org/Arrival/UW/17465463</pickID>
     <phase>P</phase>
     <distance>2.823e-01</distance>
     <creationInfo>
      <agencyID>UW</agencyID>
      <creationTime>2024-12-02T22:34:33.00</creationTime>
     </creationInfo>
    </arrival>
    <arrival publicID="quakeml:uw.anss.org/AssocArO/UW/17465468">
     <pickID>quakeml:uw.anss.org/Arrival/UW/17465468</pickID>
     <phase>P</phase>
     <distance>3.292e-01</distance>
     <creationInfo>
      <agencyID>UW</agencyID>
      <creationTime>2024-12-02T22:34:33.00</creationTime>
     </creationInfo>
    </arrival>
    <arrival publicID="quakeml:uw.anss.org/AssocArO/UW/17465473">
     <pickID>quakeml:uw.anss.org/Arrival/UW/17465473</pickID>
     <phase>P</phase>
     <distance>4.086e-01</distance>
     <creationInfo>
      <agencyID>UW</agencyID>
      <creationTime>2024-12-02T22:34:33.00</creationTime>
     </creationInfo>
    </arrival>
    <arrival publicID="quakeml:uw.anss.org/AssocArO/UW/17465478">
     <pickID>quakeml:uw.anss.org/Arrival/UW/17465478</pickID>
     <phase>P</phase>
     <distance>4.417e-01</distance>
     <creationInfo>
      <agencyID>UW</agencyID>
      <creationTime>2024-12-02T22:34:33.00</creationTime>
     </creationInfo>
    </arrival>
    <arrival publicID="quakeml:uw.anss.org/AssocArO/UW/17465483">
     <pickID>quakeml:uw.anss.org/Arrival/UW/17465483</pickID>
     <phase>P</phase>
     <distance>5.961e-01</distance>
     <creationInfo>
      <agencyID>UW</agencyID>
      <creationTime>2024-12-02T22:34:33.00</creationTime>
     </creationInfo>
    </arrival>
    <arrival publicID="quakeml:uw.anss.org/AssocArO/UW/17465488">
     <pickID>quakeml:uw.anss.org/Arrival/UW/17465488</pickID>
     <phase>P</phase>
     <distance>1.641e+00</distance>
     <creationInfo>
      <agencyID>UW</agencyID>
      <creationTime>2024-12-02T22:34:33.00</creationTime>
     </creationInfo>
    </arrival>
    <arrival publicID="quakeml:uw.anss.org/AssocArO/UW/17465493">
     <pickID>quakeml:uw.anss.org/Arrival/UW/17465493</pickID>
     <phase>P</phase>
     <distance>1.673e+00</distance>
     <creationInfo>
      <agencyID>UW</agencyID>
      <creationTime>2024-12-02T22:34:33.00</creationTime>
     </creationInfo>
    </arrival>
    <arrival publicID="quakeml:uw.anss.org/AssocArO/UW/17465498">
     <pickID>quakeml:uw.anss.org/Arrival/UW/17465498</pickID>
     <phase>P</phase>
     <distance>1.894e+00</distance>
     <creationInfo>
      <agencyID>UW</agencyID>
      <creationTime>2024-12-02T22:34:33.00</creationTime>
     </creationInfo>
    </arrival>
    <arrival publicID="quakeml:uw.anss.org/AssocArO/UW/17465503">
     <pickID>quakeml:uw.anss.org/Arrival/UW/17465503</pickID>
     <phase>P</phase>
     <distance>1.952e+00</distance>
     <creationInfo>
      <agencyID>UW</agencyID>
      <creationTime>2024-12-02T22:34:33.00</creationTime>
     </creationInfo>
    </arrival>
    <arrival publicID="quakeml:uw.anss.org/AssocArO/UW/17465508">
     <pickID>quakeml:uw.anss.org/Arrival/UW/17465508</pickID>
     <phase>P</phase>
     <distance>1.970e+00</distance>
     <creationInfo>
      <agencyID>UW</agencyID>
      <creationTime>2024-12-02T22:34:33.00</creationTime>
     </creationInfo>
    </arrival>
    <arrival publicID="quakeml:uw.anss.org/AssocArO/UW/17465513">
     <pickID>quakeml:uw.anss.org/Arrival/UW/17465513</pickID>
     <phase>P</phase>
     <distance>2.632e+00</distance>
     <creationInfo>
      <agencyID>UW</agencyID>
      <creationTime>2024-12-02T22:34:33.00</creationTime>
     </creationInfo>
    </arrival>
    <arrival publicID="quakeml:uw.anss.org/AssocArO/UW/17465518">
     <pickID>quakeml:uw.anss.org/Arrival/UW/17465518</pickID>
     <phase>P</phase>
     <distance>2.757e+00</distance>
     <creationInfo>
      <agencyID>UW</agencyID>
      <creationTime>2024-12-02T22:34:33.00</creationTime>
     </creationInfo>
    </arrival>
    <arrival publicID="quakeml:uw.anss.org/AssocArO/UW/17465523">
     <pickID>quakeml:uw.anss.org/Arrival/UW/17465523</pickID>
     <phase>P</phase>
     <distance>2.888e+00</distance>
     <creationInfo>
      <agencyID>UW</agencyID>
      <creationTime>2024-12-02T22:34:33.00</creationTime>
     </creationInfo>
    </arrival>
    <arrival publicID="quakeml:uw.anss.org/AssocArO/UW/17465528">
     <pickID>quakeml:uw.anss.org/Arrival/UW/17465528</pickID>
     <phase>P</phase>
     <distance>4.203e+00</distance>
     <creationInfo>
      <agencyID>UW</agencyID>
      <creationTime>2024-12-02T22:34:33.00</creationTime>
     </creationInfo>
    </arrival>
    <arrival publicID="quakeml:uw.anss.org/AssocArO/UW/17465533">
     <pickID>quakeml:uw.anss.org/Arrival/UW/17465533</pickID>
     <phase>P</phase>
     <distance>4.765e+00</distance>
     <creationInfo>
      <agencyID>UW</agencyID>
      <creationTime>2024-12-02T22:34:33.00</creationTime>
     </creationInfo>
    </arrival>
    <arrival publicID="quakeml:uw.anss.org/AssocArO/UW/17465538">
     <pickID>quakeml:uw.anss.org/Arrival/UW/17465538</pickID>
     <phase>P</phase>
     <distance>5.020e+00</distance>
     <creationInfo>
      <agencyID>UW</agencyID>
      <creationTime>2024-12-02T22:34:33.00</creationTime>
     </creationInfo>
    </arrival>
    <arrival publicID="quakeml:uw.anss.org/AssocArO/UW/17465543">
     <pickID>quakeml:uw.anss.org/Arrival/UW/17465543</pickID>
     <phase>P</phase>
     <distance>5.067e+00</distance>
     <creationInfo>
      <agencyID>UW</agencyID>
      <creationTime>2024-12-02T22:34:33.00</creationTime>
     </creationInfo>
    </arrival>
    <arrival publicID="quakeml:uw.anss.org/AssocArO/UW/17465548">
     <pickID>quakeml:uw.anss.org/Arrival/UW/17465548</pickID>
     <phase>P</phase>
     <distance>5.084e+00</distance>
     <creationInfo>
      <agencyID>UW</agencyID>
      <creationTime>2024-12-02T22:34:33.00</creationTime>
     </creationInfo>
    </arrival>
    <arrival publicID="quakeml:uw.anss.org/AssocArO/UW/17465553">
     <pickID>quakeml:uw.anss.org/Arrival/UW/17465553</pickID>
     <phase>P</phase>
     <distance>5.088e+00</distance>
     <creationInfo>
      <agencyID>UW</agencyID>
      <creationTime>2024-12-02T22:34:33.00</creationTime>
     </creationInfo>
    </arrival>
    <arrival publicID="quakeml:uw.anss.org/AssocArO/UW/17465558">
     <pickID>quakeml:uw.anss.org/Arrival/UW/17465558</pickID>
     <phase>P</phase>
     <distance>5.102e+00</distance>
     <creationInfo>
      <agencyID>UW</agencyID>
      <creationTime>2024-12-02T22:34:33.00</creationTime>
     </creationInfo>
    </arrival>
    <arrival publicID="quakeml:uw.anss.org/AssocArO/UW/17465563">
     <pickID>quakeml:uw.anss.org/Arrival/UW/17465563</pickID>
     <phase>P</phase>
     <distance>6.740e+00</distance>
     <creationInfo>
      <agencyID>UW</agencyID>
      <creationTime>2024-12-02T22:34:33.00</creationTime>
     </creationInfo>
    </arrival>
   </origin>
   <magnitude publicID="quakeml:uw.anss.org/Netmag/UW/3324448">
    <mag>
     <value>-5</value>
    </mag>
    <type>Mh</type>
    <originID>quakeml:uw.anss.org/Origin/UW/3299688</originID>
    <stationCount>0</stationCount>
    <evaluationMode>manual</evaluationMode>
    <evaluationStatus>reviewed</evaluationStatus>
    <creationInfo>
     <agencyID>UW</agencyID>
     <creationTime>2024-12-02T22:34:33.00</creationTime>
    </creationInfo>
    <methodID>smi:uw.anss.org/magnitude/HAND</methodID>
   </magnitude>
   <pick publicID="quakeml:uw.anss.org/Arrival/UW/17465443">
    <time>
     <value>2024-12-02T09:37:54.85</value>
     <uncertainty>0.03</uncertainty>
    </time>
    <waveformID networkCode="UW" stationCode="MBW2" channelCode="HHZ" locationCode="" />
    <onset>impulsive</onset>
    <polarity>negative</polarity>
    <evaluationMode>manual</evaluationMode>
    <evaluationStatus>reviewed</evaluationStatus>
    <creationInfo>
     <agencyID>UW</agencyID>
     <creationTime>2024-12-02T22:34:33.00</creationTime>
    </creationInfo>
   </pick>
   <pick publicID="quakeml:uw.anss.org/Arrival/UW/17465448">
    <time>
     <value>2024-12-02T09:37:58.09</value>
     <uncertainty>0.15</uncertainty>
    </time>
    <waveformID networkCode="UW" stationCode="SAXON" channelCode="HHZ" locationCode="" />
    <onset>emergent</onset>
    <polarity>undecidable</polarity>
    <evaluationMode>manual</evaluationMode>
    <evaluationStatus>reviewed</evaluationStatus>
    <creationInfo>
     <agencyID>UW</agencyID>
     <creationTime>2024-12-02T22:34:33.00</creationTime>
    </creationInfo>
   </pick>
   <pick publicID="quakeml:uw.anss.org/Arrival/UW/17465453">
    <time>
     <value>2024-12-02T09:37:59.61</value>
     <uncertainty>0.30</uncertainty>
    </time>
    <waveformID networkCode="UW" stationCode="PASS" channelCode="HHZ" locationCode="" />
    <onset>emergent</onset>
    <polarity>undecidable</polarity>
    <evaluationMode>manual</evaluationMode>
    <evaluationStatus>reviewed</evaluationStatus>
    <creationInfo>
     <agencyID>UW</agencyID>
     <creationTime>2024-12-02T22:34:33.00</creationTime>
    </creationInfo>
   </pick>
   <pick publicID="quakeml:uw.anss.org/Arrival/UW/17465458">
    <time>
     <value>2024-12-02T09:38:01.00</value>
    </time>
    <waveformID networkCode="CN" stationCode="VDEB" channelCode="HHZ" locationCode="" />
    <onset>questionable</onset>
    <polarity>undecidable</polarity>
    <evaluationMode>automatic</evaluationMode>
    <evaluationStatus>preliminary</evaluationStatus>
    <creationInfo>
     <agencyID>UW</agencyID>
     <creationTime>2024-12-02T22:34:33.00</creationTime>
    </creationInfo>
   </pick>
   <pick publicID="quakeml:uw.anss.org/Arrival/UW/17465463">
    <time>
     <value>2024-12-02T09:37:58.89</value>
     <uncertainty>0.30</uncertainty>
    </time>
    <waveformID networkCode="UW" stationCode="MULN" channelCode="HHZ" locationCode="" />
    <onset>emergent</onset>
    <polarity>undecidable</polarity>
    <evaluationMode>manual</evaluationMode>
    <evaluationStatus>reviewed</evaluationStatus>
    <creationInfo>
     <agencyID>UW</agencyID>
     <creationTime>2024-12-02T22:34:33.00</creationTime>
    </creationInfo>
   </pick>
   <pick publicID="quakeml:uw.anss.org/Arrival/UW/17465468">
    <time>
     <value>2024-12-02T09:39:10.00</value>
    </time>
    <waveformID networkCode="UW" stationCode="BHAM" channelCode="HHZ" locationCode="" />
    <onset>questionable</onset>
    <polarity>undecidable</polarity>
    <evaluationMode>automatic</evaluationMode>
    <evaluationStatus>preliminary</evaluationStatus>
    <creationInfo>
     <agencyID>UW</agencyID>
     <creationTime>2024-12-02T22:34:33.00</creationTime>
    </creationInfo>
   </pick>
   <pick publicID="quakeml:uw.anss.org/Arrival/UW/17465473">
    <time>
     <value>2024-12-02T09:38:11.00</value>
    </time>
    <waveformID networkCode="UW" stationCode="DONK" channelCode="HHZ" locationCode="" />
    <onset>questionable</onset>
    <polarity>undecidable</polarity>
    <evaluationMode>automatic</evaluationMode>
    <evaluationStatus>preliminary</evaluationStatus>
    <creationInfo>
     <agencyID>UW</agencyID>
     <creationTime>2024-12-02T22:34:33.00</creationTime>
    </creationInfo>
   </pick>
   <pick publicID="quakeml:uw.anss.org/Arrival/UW/17465478">
    <time>
     <value>2024-12-02T09:38:02.00</value>
    </time>
    <waveformID networkCode="UW" stationCode="RPW2" channelCode="HHZ" locationCode="" />
    <onset>questionable</onset>
    <polarity>undecidable</polarity>
    <evaluationMode>automatic</evaluationMode>
    <evaluationStatus>preliminary</evaluationStatus>
    <creationInfo>
     <agencyID>UW</agencyID>
     <creationTime>2024-12-02T22:34:33.00</creationTime>
    </creationInfo>
   </pick>
   <pick publicID="quakeml:uw.anss.org/Arrival/UW/17465483">
    <time>
     <value>2024-12-02T09:38:15.00</value>
    </time>
    <waveformID networkCode="UW" stationCode="DART" channelCode="HHZ" locationCode="" />
    <onset>questionable</onset>
    <polarity>undecidable</polarity>
    <evaluationMode>automatic</evaluationMode>
    <evaluationStatus>preliminary</evaluationStatus>
    <creationInfo>
     <agencyID>UW</agencyID>
     <creationTime>2024-12-02T22:34:33.00</creationTime>
    </creationInfo>
   </pick>
   <pick publicID="quakeml:uw.anss.org/Arrival/UW/17465488">
    <time>
     <value>2024-12-02T09:38:27.00</value>
    </time>
    <waveformID networkCode="UW" stationCode="TNSKT" channelCode="HHZ" locationCode="" />
    <onset>questionable</onset>
    <polarity>undecidable</polarity>
    <evaluationMode>automatic</evaluationMode>
    <evaluationStatus>preliminary</evaluationStatus>
    <creationInfo>
     <agencyID>UW</agencyID>
     <creationTime>2024-12-02T22:34:33.00</creationTime>
    </creationInfo>
   </pick>
   <pick publicID="quakeml:uw.anss.org/Arrival/UW/17465493">
    <time>
     <value>2024-12-02T09:38:06.00</value>
    </time>
    <waveformID networkCode="UW" stationCode="MEW" channelCode="HHZ" locationCode="" />
    <onset>questionable</onset>
    <polarity>undecidable</polarity>
    <evaluationMode>automatic</evaluationMode>
    <evaluationStatus>preliminary</evaluationStatus>
    <creationInfo>
     <agencyID>UW</agencyID>
     <creationTime>2024-12-02T22:34:33.00</creationTime>
    </creationInfo>
   </pick>
   <pick publicID="quakeml:uw.anss.org/Arrival/UW/17465498">
    <time>
     <value>2024-12-02T09:37:57.00</value>
    </time>
    <waveformID networkCode="CC" stationCode="PR01" channelCode="BHZ" locationCode="" />
    <onset>questionable</onset>
    <polarity>undecidable</polarity>
    <evaluationMode>automatic</evaluationMode>
    <evaluationStatus>preliminary</evaluationStatus>
    <creationInfo>
     <agencyID>UW</agencyID>
     <creationTime>2024-12-02T22:34:33.00</creationTime>
    </creationInfo>
   </pick>
   <pick publicID="quakeml:uw.anss.org/Arrival/UW/17465503">
    <time>
     <value>2024-12-02T09:38:29.00</value>
    </time>
    <waveformID networkCode="CC" stationCode="PANH" channelCode="BHZ" locationCode="" />
    <onset>questionable</onset>
    <polarity>undecidable</polarity>
    <evaluationMode>automatic</evaluationMode>
    <evaluationStatus>preliminary</evaluationStatus>
    <creationInfo>
     <agencyID>UW</agencyID>
     <creationTime>2024-12-02T22:34:33.00</creationTime>
    </creationInfo>
   </pick>
   <pick publicID="quakeml:uw.anss.org/Arrival/UW/17465508">
    <time>
     <value>2024-12-02T09:38:24.00</value>
    </time>
    <waveformID networkCode="UW" stationCode="RCM" channelCode="HHZ" locationCode="" />
    <onset>questionable</onset>
    <polarity>undecidable</polarity>
    <evaluationMode>automatic</evaluationMode>
    <evaluationStatus>preliminary</evaluationStatus>
    <creationInfo>
     <agencyID>UW</agencyID>
     <creationTime>2024-12-02T22:34:33.00</creationTime>
    </creationInfo>
   </pick>
   <pick publicID="quakeml:uw.anss.org/Arrival/UW/17465513">
    <time>
     <value>2024-12-02T09:38:35.00</value>
    </time>
    <waveformID networkCode="UW" stationCode="DAVN" channelCode="HHZ" locationCode="" />
    <onset>questionable</onset>
    <polarity>undecidable</polarity>
    <evaluationMode>automatic</evaluationMode>
    <evaluationStatus>preliminary</evaluationStatus>
    <creationInfo>
     <agencyID>UW</agencyID>
     <creationTime>2024-12-02T22:34:33.00</creationTime>
    </creationInfo>
   </pick>
   <pick publicID="quakeml:uw.anss.org/Arrival/UW/17465518">
    <time>
     <value>2024-12-02T09:38:38.00</value>
    </time>
    <waveformID networkCode="CC" stationCode="HORC" channelCode="HHZ" locationCode="" />
    <onset>questionable</onset>
    <polarity>undecidable</polarity>
    <evaluationMode>automatic</evaluationMode>
    <evaluationStatus>preliminary</evaluationStatus>
    <creationInfo>
     <agencyID>UW</agencyID>
     <creationTime>2024-12-02T22:34:33.00</creationTime>
    </creationInfo>
   </pick>
   <pick publicID="quakeml:uw.anss.org/Arrival/UW/17465523">
    <time>
     <value>2024-12-02T09:39:03.00</value>
    </time>
    <waveformID networkCode="UO" stationCode="SKAN" channelCode="HHZ" locationCode="" />
    <onset>questionable</onset>
    <polarity>undecidable</polarity>
    <evaluationMode>automatic</evaluationMode>
    <evaluationStatus>preliminary</evaluationStatus>
    <creationInfo>
     <agencyID>UW</agencyID>
     <creationTime>2024-12-02T22:34:33.00</creationTime>
    </creationInfo>
   </pick>
   <pick publicID="quakeml:uw.anss.org/Arrival/UW/17465528">
    <time>
     <value>2024-12-02T09:38:38.00</value>
