<?xml version="1.0" encoding="UTF-8"?>

<q:quakeml xmlns:q="http://quakeml.org/xmlns/quakeml/1.2" xmlns="http://quakeml.org/xmlns/bed/1.2" xmlns:catalog="http://anss.org/xmlns/catalog/0.1">
 <eventParameters publicID="quakeml:uw.anss.org/Event/UW/62043527#173654851259">
  <creationInfo>
   <agencyID>UW</agencyID>
   <creationTime>2025-01-10T22:35:12.59</creationTime>
  </creationInfo>
  <event publicID="quakeml:uw.anss.org/Event/UW/62043527" catalog:datasource="uw" catalog:dataid="uw62043527" catalog:eventsource="uw" catalog:eventid="62043527">
   <preferredOriginID>quakeml:uw.anss.org/Origin/UW/3292718</preferredOriginID>
   <preferredMagnitudeID>quakeml:uw.anss.org/Netmag/UW/3313013</preferredMagnitudeID>
   <creationInfo>
    <agencyID>UW</agencyID>
    <creationTime>2024-10-04T05:09:44.00</creationTime>
    <version>3</version>
   </creationInfo>
   <type>explosion</type>
   <typeCertainty>suspected</typeCertainty>
   <origin publicID="quakeml:uw.anss.org/Origin/UW/3292718" catalog:datasource="uw" catalog:dataid="uw62043527" catalog:eventsource="uw" catalog:eventid="62043527">
    <time>
     <value>2024-10-03T21:39:17.90</value>
    </time>
    <timeFixed>0</timeFixed>
    <latitude>
     <value>49.09016666666667</value>
    </latitude>
    <longitude>
     <value>-122.09633333333333</value>
    </longitude>
    <epicenterFixed>0</epicenterFixed>
    <depth>
     <value>-810</value>
     <uncertainty>31610</uncertainty>
    </depth>
    <depthType>operator assigned</depthType>
    <type>hypocenter</type>
    <evaluationMode>manual</evaluationMode>
    <evaluationStatus>final</evaluationStatus>
    <quality>
     <associatedPhaseCount>7</associatedPhaseCount>
     <usedPhaseCount>5</usedPhaseCount>
     <associatedStationCount>7</associatedStationCount>
     <usedStationCount>5</usedStationCount>
     <standardError>0.01</standardError>
     <azimuthalGap>262</azimuthalGap>
     <secondaryAzimuthalGap>304</secondaryAzimuthalGap>
     <minimumDistance>4.204e-02</minimumDistance>
     <medianDistance>4.095e-01</medianDistance>
     <maximumDistance>7.478e-01</maximumDistance>
    </quality>
    <creationInfo>
     <agencyID>UW</agencyID>
     <creationTime>2024-10-04T05:05:59.00</creationTime>
    </creationInfo>
    <originUncertainty>
     <confidenceEllipsoid>
      <semiMajorAxisLength>75864</semiMajorAxisLength>
      <semiMinorAxisLength>912</semiMinorAxisLength>
      <semiIntermediateAxisLength>9024</semiIntermediateAxisLength>
      <majorAxisPlunge>90</majorAxisPlunge>
      <majorAxisAzimuth>0</majorAxisAzimuth>
      <majorAxisRotation>347</majorAxisRotation>
     </confidenceEllipsoid>
     <preferredDescription>confidence ellipsoid</preferredDescription>
     <confidenceLevel>95</confidenceLevel>
     <horizontalUncertainty>3760</horizontalUncertainty>
    </originUncertainty>
    <methodID>smi:uw.anss.org/origin/HYP2000</methodID>
    <arrival publicID="quakeml:uw.anss.org/AssocArO/UW/17361283">
     <pickID>quakeml:uw.anss.org/Arrival/UW/17361283</pickID>
     <phase>P</phase>
     <azimuth>142.21254976746854</azimuth>
     <distance>4.204e-02</distance>
     <timeResidual>0</timeResidual>
     <timeCorrection>0</timeCorrection>
     <timeWeight>0.00</timeWeight>
     <creationInfo>
      <agencyID>UW</agencyID>
      <creationTime>2024-10-04T05:09:44.00</creationTime>
     </creationInfo>
    </arrival>
    <arrival publicID="quakeml:uw.anss.org/AssocArO/UW/17361288">
     <pickID>quakeml:uw.anss.org/Arrival/UW/17361288</pickID>
     <phase>P</phase>
     <azimuth>158.13164477216412</azimuth>
     <distance>3.121e-01</distance>
     <timeResidual>-0.02</timeResidual>
     <timeCorrection>0.17</timeCorrection>
     <timeWeight>0.10</timeWeight>
     <takeoffAngle>
      <value>57</value>
     </takeoffAngle>
     <creationInfo>
      <agencyID>UW</agencyID>
      <creationTime>2024-10-04T05:09:44.00</creationTime>
     </creationInfo>
    </arrival>
    <arrival publicID="quakeml:uw.anss.org/AssocArO/UW/17361293">
     <pickID>quakeml:uw.anss.org/Arrival/UW/17361293</pickID>
     <phase>P</phase>
     <azimuth>130.60965097678206</azimuth>
     <distance>3.644e-01</distance>
     <timeResidual>0</timeResidual>
     <timeCorrection>0.07</timeCorrection>
     <timeWeight>0.10</timeWeight>
     <takeoffAngle>
      <value>57</value>
     </takeoffAngle>
     <creationInfo>
      <agencyID>UW</agencyID>
      <creationTime>2024-10-04T05:09:44.00</creationTime>
     </creationInfo>
    </arrival>
    <arrival publicID="quakeml:uw.anss.org/AssocArO/UW/17361298">
     <pickID>quakeml:uw.anss.org/Arrival/UW/17361298</pickID>
     <phase>P</phase>
     <azimuth>185.97597829978963</azimuth>
     <distance>4.095e-01</distance>
     <timeResidual>0.01</timeResidual>
     <timeCorrection>0.1</timeCorrection>
     <timeWeight>0.10</timeWeight>
     <takeoffAngle>
      <value>57</value>
     </takeoffAngle>
     <creationInfo>
      <agencyID>UW</agencyID>
      <creationTime>2024-10-04T05:09:44.00</creationTime>
     </creationInfo>
    </arrival>
    <arrival publicID="quakeml:uw.anss.org/AssocArO/UW/17361303">
     <pickID>quakeml:uw.anss.org/Arrival/UW/17361303</pickID>
     <phase>S</phase>
     <azimuth>227.52292827458584</azimuth>
     <distance>5.470e-01</distance>
     <timeResidual>-0.01</timeResidual>
     <timeCorrection>0.11</timeCorrection>
     <timeWeight>0.10</timeWeight>
     <takeoffAngle>
      <value>57</value>
     </takeoffAngle>
     <creationInfo>
      <agencyID>UW</agencyID>
      <creationTime>2024-10-04T05:09:44.00</creationTime>
     </creationInfo>
    </arrival>
    <arrival publicID="quakeml:uw.anss.org/AssocArO/UW/17361308">
     <pickID>quakeml:uw.anss.org/Arrival/UW/17361308</pickID>
     <phase>P</phase>
     <azimuth>183.4424030269559</azimuth>
     <distance>6.681e-01</distance>
     <timeResidual>1.18</timeResidual>
     <timeCorrection>-0.02</timeCorrection>
     <timeWeight>0.00</timeWeight>
     <takeoffAngle>
      <value>57</value>
     </takeoffAngle>
     <creationInfo>
      <agencyID>UW</agencyID>
      <creationTime>2024-10-04T05:09:44.00</creationTime>
     </creationInfo>
    </arrival>
    <arrival publicID="quakeml:uw.anss.org/AssocArO/UW/17361313">
     <pickID>quakeml:uw.anss.org/Arrival/UW/17361313</pickID>
     <phase>P</phase>
     <azimuth>149.5858024777616</azimuth>
     <distance>7.478e-01</distance>
     <timeResidual>0.02</timeResidual>
     <timeCorrection>0.14</timeCorrection>
     <timeWeight>0.10</timeWeight>
     <takeoffAngle>
      <value>57</value>
     </takeoffAngle>
     <creationInfo>
      <agencyID>UW</agencyID>
      <creationTime>2024-10-04T05:09:44.00</creationTime>
     </creationInfo>
    </arrival>
   </origin>
   <magnitude publicID="quakeml:uw.anss.org/Netmag/UW/3313013">
    <mag>
     <value>0.8</value>
     <uncertainty>0.11436981379643019</uncertainty>
    </mag>
    <type>Md</type>
    <originID>quakeml:uw.anss.org/Origin/UW/3292718</originID>
    <stationCount>3</stationCount>
    <azimuthalGap>304.63367267699243</azimuthalGap>
    <evaluationMode>manual</evaluationMode>
    <evaluationStatus>reviewed</evaluationStatus>
    <creationInfo>
     <agencyID>UW</agencyID>
     <creationTime>2024-10-04T05:09:44.00</creationTime>
    </creationInfo>
    <methodID>smi:uw.anss.org/magnitude/HypoinvMd</methodID>
    <stationMagnitudeContribution>
     <stationMagnitudeID>quakeml:uw.anss.org/AssocCoM/UW/6913083</stationMagnitudeID>
     <residual>0.12</residual>
     <weight>1</weight>
    </stationMagnitudeContribution>
    <stationMagnitudeContribution>
     <stationMagnitudeID>quakeml:uw.anss.org/AssocCoM/UW/6913073</stationMagnitudeID>
     <residual>-0.12</residual>
     <weight>1</weight>
    </stationMagnitudeContribution>
    <stationMagnitudeContribution>
     <stationMagnitudeID>quakeml:uw.anss.org/AssocCoM/UW/6913078</stationMagnitudeID>
     <residual>0.00</residual>
     <weight>1</weight>
    </stationMagnitudeContribution>
   </magnitude>
   <stationMagnitude publicID="quakeml:uw.anss.org/AssocCoM/UW/6913073">
    <originID>quakeml:uw.anss.org/Origin/UW/3292718</originID>
    <mag>
     <value>0.68</value>
    </mag>
    <type>MD</type>
    <amplitudeID>quakeml:uw.anss.org/Coda/UW/6913073</amplitudeID>
    <waveformID networkCode="UW" stationCode="MBW2" channelCode="HHZ" locationCode="" />
   </stationMagnitude>
   <stationMagnitude publicID="quakeml:uw.anss.org/AssocCoM/UW/6913078">
    <originID>quakeml:uw.anss.org/Origin/UW/3292718</originID>
    <mag>
     <value>0.80</value>
    </mag>
    <type>MD</type>
    <amplitudeID>quakeml:uw.anss.org/Coda/UW/6913078</amplitudeID>
    <waveformID networkCode="UW" stationCode="SHUK" channelCode="HHZ" locationCode="" />
   </stationMagnitude>
   <stationMagnitude publicID="quakeml:uw.anss.org/AssocCoM/UW/6913083">
    <originID>quakeml:uw.anss.org/Origin/UW/3292718</originID>
    <mag>
     <value>0.92</value>
    </mag>
    <type>MD</type>
    <amplitudeID>quakeml:uw.anss.org/Coda/UW/6913083</amplitudeID>
    <waveformID networkCode="UW" stationCode="SAXON" channelCode="HHZ" locationCode="" />
   </stationMagnitude>
   <amplitude publicID="quakeml:uw.anss.org/Coda/UW/6913073">
    <type>END</type>
    <genericAmplitude>
     <value>6.4629e+00</value>
    </genericAmplitude>
    <category>duration</category>
    <unit>s</unit>
    <timeWindow>
     <reference>2024-10-03T21:39:24.27</reference>
     <begin>0.0</begin>
     <end>2</end>
    </timeWindow>
    <magnitudeHint>MD</magnitudeHint>
    <waveformID networkCode="UW" stationCode="MBW2" channelCode="HHZ" locationCode="" />
    <evaluationMode>automatic</evaluationMode>
    <evaluationStatus>preliminary</evaluationStatus>
   </amplitude>
   <amplitude publicID="quakeml:uw.anss.org/Coda/UW/6913083">
    <type>END</type>
    <genericAmplitude>
     <value>7.8789e+00</value>
    </genericAmplitude>
    <category>duration</category>
    <unit>s</unit>
    <timeWindow>
     <reference>2024-10-03T21:39:25.92</reference>
     <begin>0.0</begin>
     <end>2</end>
    </timeWindow>
    <magnitudeHint>MD</magnitudeHint>
    <waveformID networkCode="UW" stationCode="SAXON" channelCode="HHZ" locationCode="" />
    <evaluationMode>automatic</evaluationMode>
    <evaluationStatus>preliminary</evaluationStatus>
   </amplitude>
   <amplitude publicID="quakeml:uw.anss.org/Coda/UW/6913078">
    <type>END</type>
    <genericAmplitude>
     <value>7.1764e+00</value>
    </genericAmplitude>
    <category>duration</category>
    <unit>s</unit>
    <timeWindow>
     <reference>2024-10-03T21:39:25.10</reference>
     <begin>0.0</begin>
     <end>2</end>
    </timeWindow>
    <magnitudeHint>MD</magnitudeHint>
    <waveformID networkCode="UW" stationCode="SHUK" channelCode="HHZ" locationCode="" />
    <evaluationMode>automatic</evaluationMode>
    <evaluationStatus>preliminary</evaluationStatus>
   </amplitude>
   <pick publicID="quakeml:uw.anss.org/Arrival/UW/17361283">
    <time>
     <value>2024-10-03T21:39:19.00</value>
     <uncertainty>0.06</uncertainty>
    </time>
    <waveformID networkCode="CN" stationCode="VDEB" channelCode="HHZ" locationCode="" />
    <onset>impulsive</onset>
    <polarity>positive</polarity>
    <evaluationMode>manual</evaluationMode>
    <evaluationStatus>reviewed</evaluationStatus>
    <creationInfo>
     <agencyID>UW</agencyID>
     <creationTime>2024-10-04T05:09:44.00</creationTime>
    </creationInfo>
   </pick>
   <pick publicID="quakeml:uw.anss.org/Arrival/UW/17361288">
    <time>
     <value>2024-10-03T21:39:24.27</value>
     <uncertainty>0.15</uncertainty>
    </time>
    <waveformID networkCode="UW" stationCode="MBW2" channelCode="HHZ" locationCode="" />
    <onset>emergent</onset>
    <polarity>undecidable</polarity>
    <evaluationMode>manual</evaluationMode>
    <evaluationStatus>reviewed</evaluationStatus>
    <creationInfo>
     <agencyID>UW</agencyID>
     <creationTime>2024-10-04T05:09:44.00</creationTime>
    </creationInfo>
   </pick>
   <pick publicID="quakeml:uw.anss.org/Arrival/UW/17361293">
    <time>
     <value>2024-10-03T21:39:25.10</value>
     <uncertainty>0.15</uncertainty>
    </time>
    <waveformID networkCode="UW" stationCode="SHUK" channelCode="HHZ" locationCode="" />
    <onset>emergent</onset>
    <polarity>undecidable</polarity>
    <evaluationMode>manual</evaluationMode>
    <evaluationStatus>reviewed</evaluationStatus>
    <creationInfo>
     <agencyID>UW</agencyID>
     <creationTime>2024-10-04T05:09:44.00</creationTime>
    </creationInfo>
   </pick>
   <pick publicID="quakeml:uw.anss.org/Arrival/UW/17361298">
    <time>
     <value>2024-10-03T21:39:25.92</value>
     <uncertainty>0.15</uncertainty>
    </time>
    <waveformID networkCode="UW" stationCode="SAXON" channelCode="HHZ" locationCode="" />
    <onset>emergent</onset>
    <polarity>undecidable</polarity>
    <evaluationMode>manual</evaluationMode>
    <evaluationStatus>reviewed</evaluationStatus>
    <creationInfo>
     <agencyID>UW</agencyID>
     <creationTime>2024-10-04T05:09:44.00</creationTime>
    </creationInfo>
   </pick>
   <pick publicID="quakeml:uw.anss.org/Arrival/UW/17361303">
    <time>
     <value>2024-10-03T21:39:36.35</value>
     <uncertainty>0.15</uncertainty>
    </time>
    <waveformID networkCode="UW" stationCode="LUMI" channelCode="HHN" locationCode="" />
    <onset>emergent</onset>
    <polarity>undecidable</polarity>
    <evaluationMode>manual</evaluationMode>
    <evaluationStatus>reviewed</evaluationStatus>
    <creationInfo>
     <agencyID>UW</agencyID>
     <creationTime>2024-10-04T05:09:44.00</creationTime>
    </creationInfo>
   </pick>
   <pick publicID="quakeml:uw.anss.org/Arrival/UW/17361308">
    <time>
     <value>2024-10-03T21:39:31.48</value>
     <uncertainty>0.30</uncertainty>
    </time>
    <waveformID networkCode="UW" stationCode="DONK" channelCode="HHZ" locationCode="" />
    <onset>emergent</onset>
    <polarity>undecidable</polarity>
    <evaluationMode>manual</evaluationMode>
    <evaluationStatus>reviewed</evaluationStatus>
    <creationInfo>
     <agencyID>UW</agencyID>
     <creationTime>2024-10-04T05:09:44.00</creationTime>
    </creationInfo>
   </pick>
   <pick publicID="quakeml:uw.anss.org/Arrival/UW/17361313">
    <time>
     <value>2024-10-03T21:39:31.87</value>
     <uncertainty>0.15</uncertainty>
    </time>
    <waveformID networkCode="UW" stationCode="RPW2" channelCode="HHZ" locationCode="" />
    <onset>emergent</onset>
    <polarity>undecidable</polarity>
    <evaluationMode>manual</evaluationMode>
    <evaluationStatus>reviewed</evaluationStatus>
    <creationInfo>
     <agencyID>UW</agencyID>
     <creationTime>2024-10-04T05:09:44.00</creationTime>
    </creationInfo>
   </pick>
  </event>
  <event publicID="quakeml:uw.anss.org/Event/UW/62043717" catalog:datasource="uw" catalog:dataid="uw62043717" catalog:eventsource="uw" catalog:eventid="62043717">
   <preferredOriginID>quakeml:uw.anss.org/Origin/UW/3293078</preferredOriginID>
   <preferredMagnitudeID>quakeml:uw.anss.org/Netmag/UW/3313473</preferredMagnitudeID>
   <creationInfo>
    <agencyID>UW</agencyID>
    <creationTime>2024-10-04T21:47:57.00</creationTime>
    <version>1</version>
   </creationInfo>
   <type>earthquake</type>
   <origin publicID="quakeml:uw.anss.org/Origin/UW/3293078" catalog:datasource="uw" catalog:dataid="uw62043717" catalog:eventsource="uw" catalog:eventid="62043717">
    <time>
     <value>2024-10-04T17:02:43.46</value>
    </time>
    <timeFixed>0</timeFixed>
    <latitude>
     <value>48.741</value>
    </latitude>
    <longitude>
     <value>-121.84666666666666</value>
    </longitude>
    <epicenterFixed>0</epicenterFixed>
    <depth>
     <value>250</value>
     <uncertainty>4440</uncertainty>
    </depth>
    <depthType>from location</depthType>
    <type>hypocenter</type>
    <evaluationMode>manual</evaluationMode>
    <evaluationStatus>reviewed</evaluationStatus>
    <quality>
     <associatedPhaseCount>8</associatedPhaseCount>
     <usedPhaseCount>8</usedPhaseCount>
     <associatedStationCount>5</associatedStationCount>
     <usedStationCount>5</usedStationCount>
     <standardError>0.21</standardError>
     <azimuthalGap>100</azimuthalGap>
     <secondaryAzimuthalGap>530</secondaryAzimuthalGap>
     <minimumDistance>7.704e-02</minimumDistance>
     <medianDistance>2.160e-01</medianDistance>
     <maximumDistance>3.647e-01</maximumDistance>
    </quality>
    <creationInfo>
     <agencyID>UW</agencyID>
     <creationTime>2024-10-04T21:45:06.00</creationTime>
    </creationInfo>
    <originUncertainty>
     <confidenceEllipsoid>
      <semiMajorAxisLength>11616</semiMajorAxisLength>
      <semiMinorAxisLength>1032</semiMinorAxisLength>
      <semiIntermediateAxisLength>1368</semiIntermediateAxisLength>
      <majorAxisPlunge>66</majorAxisPlunge>
      <majorAxisAzimuth>356</majorAxisAzimuth>
      <majorAxisRotation>69</majorAxisRotation>
     </confidenceEllipsoid>
     <preferredDescription>confidence ellipsoid</preferredDescription>
     <confidenceLevel>95</confidenceLevel>
     <horizontalUncertainty>1920</horizontalUncertainty>
    </originUncertainty>
    <methodID>smi:uw.anss.org/origin/HYP2000</methodID>
    <arrival publicID="quakeml:uw.anss.org/AssocArO/UW/17364543">
     <pickID>quakeml:uw.anss.org/Arrival/UW/17364543</pickID>
     <phase>P</phase>
     <azimuth>321.03439791981515</azimuth>
     <distance>7.704e-02</distance>
     <timeResidual>-0.3</timeResidual>
     <timeCorrection>0.17</timeCorrection>
     <timeWeight>0.14</timeWeight>
     <takeoffAngle>
      <value>97</value>
     </takeoffAngle>
     <creationInfo>
      <agencyID>UW</agencyID>
      <creationTime>2024-10-04T21:47:57.00</creationTime>
     </creationInfo>
    </arrival>
    <arrival publicID="quakeml:uw.anss.org/AssocArO/UW/17364548">
     <pickID>quakeml:uw.anss.org/Arrival/UW/17364548</pickID>
     <phase>S</phase>
     <azimuth>321.03439791981515</azimuth>
     <distance>7.704e-02</distance>
     <timeResidual>0.3</timeResidual>
     <timeCorrection>0.3</timeCorrection>
     <timeWeight>0.09</timeWeight>
     <takeoffAngle>
      <value>97</value>
     </takeoffAngle>
     <creationInfo>
      <agencyID>UW</agencyID>
      <creationTime>2024-10-04T21:47:57.00</creationTime>
     </creationInfo>
    </arrival>
    <arrival publicID="quakeml:uw.anss.org/AssocArO/UW/17364553">
     <pickID>quakeml:uw.anss.org/Arrival/UW/17364553</pickID>
     <phase>P</phase>
     <azimuth>44.90923570286316</azimuth>
     <distance>1.585e-01</distance>
     <timeResidual>0.08</timeResidual>
     <timeCorrection>0.07</timeCorrection>
     <timeWeight>0.09</timeWeight>
     <takeoffAngle>
      <value>93</value>
     </takeoffAngle>
     <creationInfo>
      <agencyID>UW</agencyID>
      <creationTime>2024-10-04T21:47:57.00</creationTime>
     </creationInfo>
    </arrival>
    <arrival publicID="quakeml:uw.anss.org/AssocArO/UW/17364558">
     <pickID>quakeml:uw.anss.org/Arrival/UW/17364558</pickID>
     <phase>S</phase>
     <azimuth>44.90923570286316</azimuth>
     <distance>1.585e-01</distance>
     <timeResidual>0.09</timeResidual>
     <timeCorrection>0.12</timeCorrection>
     <timeWeight>0.09</timeWeight>
     <takeoffAngle>
      <value>93</value>
     </takeoffAngle>
     <creationInfo>
      <agencyID>UW</agencyID>
      <creationTime>2024-10-04T21:47:57.00</creationTime>
     </creationInfo>
    </arrival>
    <arrival publicID="quakeml:uw.anss.org/AssocArO/UW/17364563">
     <pickID>quakeml:uw.anss.org/Arrival/UW/17364563</pickID>
     <phase>P</phase>
     <azimuth>254.5613972614198</azimuth>
     <distance>2.160e-01</distance>
     <timeResidual>0.25</timeResidual>
     <timeCorrection>0.1</timeCorrection>
     <timeWeight>0.09</timeWeight>
     <takeoffAngle>
      <value>57</value>
     </takeoffAngle>
     <creationInfo>
      <agencyID>UW</agencyID>
      <creationTime>2024-10-04T21:47:57.00</creationTime>
     </creationInfo>
    </arrival>
