<?xml version='1.0' encoding='utf-8'?>
<q:quakeml xmlns="http://quakeml.org/xmlns/bed/1.2" xmlns:q="http://quakeml.org/xmlns/quakeml/1.2" xmlns:ns0="http://anss.org/xmlns/catalog/0.1">
  <eventParameters publicID="smi:local/f6ebd0b7-4233-45a3-92f8-bace7ca30cae">
    <event publicID="quakeml:uw.anss.org/Event/UW/62055146" ns0:datasource="uw" ns0:dataid="uw62055146" ns0:eventsource="uw" ns0:eventid="62055146">
      <preferredOriginID>quakeml:uw.anss.org/Origin/UW/3294923</preferredOriginID>
      <preferredMagnitudeID>quakeml:uw.anss.org/Netmag/UW/3316573</preferredMagnitudeID>
      <type>explosion</type>
      <typeCertainty>suspected</typeCertainty>
      <creationInfo>
        <agencyID>UW</agencyID>
        <creationTime>2024-10-18T17:30:23.000000Z</creationTime>
        <version>2</version>
      </creationInfo>
      <origin publicID="quakeml:uw.anss.org/Origin/UW/3294923" ns0:datasource="uw" ns0:dataid="uw62055146" ns0:eventsource="uw" ns0:eventid="62055146">
        <time>
          <value>2024-10-17T22:58:33.660000Z</value>
        </time>
        <latitude>
          <value>49.12083333333333</value>
        </latitude>
        <longitude>
          <value>-122.17616666666666</value>
        </longitude>
        <depth>
          <value>-680.0</value>
          <uncertainty>31610.0</uncertainty>
        </depth>
        <depthType>operator assigned</depthType>
        <timeFixed>false</timeFixed>
        <epicenterFixed>false</epicenterFixed>
        <methodID>smi:uw.anss.org/origin/HYP2000</methodID>
        <quality>
          <associatedPhaseCount>8</associatedPhaseCount>
          <usedPhaseCount>7</usedPhaseCount>
          <associatedStationCount>6</associatedStationCount>
          <usedStationCount>5</usedStationCount>
          <standardError>0.23</standardError>
          <azimuthalGap>264.0</azimuthalGap>
          <secondaryAzimuthalGap>310.0</secondaryAzimuthalGap>
          <minimumDistance>0.1365</minimumDistance>
          <maximumDistance>0.619</maximumDistance>
          <medianDistance>0.4312</medianDistance>
        </quality>
        <type>hypocenter</type>
        <evaluationMode>manual</evaluationMode>
        <evaluationStatus>final</evaluationStatus>
        <creationInfo>
          <agencyID>UW</agencyID>
          <creationTime>2024-10-18T17:27:44.000000Z</creationTime>
        </creationInfo>
        <originUncertainty>
          <preferredDescription>confidence ellipsoid</preferredDescription>
          <horizontalUncertainty>1450.0</horizontalUncertainty>
          <confidenceLevel>95.0</confidenceLevel>
          <confidenceEllipsoid>
            <semiMajorAxisLength>75864.0</semiMajorAxisLength>
            <semiMinorAxisLength>2640.0</semiMinorAxisLength>
            <semiIntermediateAxisLength>3480.0</semiIntermediateAxisLength>
            <majorAxisPlunge>90.0</majorAxisPlunge>
            <majorAxisAzimuth>0.0</majorAxisAzimuth>
            <majorAxisRotation>20.0</majorAxisRotation>
          </confidenceEllipsoid>
        </originUncertainty>
        <arrival publicID="quakeml:uw.anss.org/AssocArO/UW/17390913">
          <pickID>quakeml:uw.anss.org/Arrival/UW/17390913</pickID>
          <phase>P</phase>
          <timeCorrection>0.27</timeCorrection>
          <azimuth>154.02380340960167</azimuth>
          <distance>0.1365</distance>
          <takeoffAngle>
            <value>90.0</value>
          </takeoffAngle>
          <timeResidual>-0.39</timeResidual>
          <timeWeight>0.05</timeWeight>
          <creationInfo>
            <agencyID>UW</agencyID>
            <creationTime>2024-10-18T17:30:22.000000Z</creationTime>
          </creationInfo>
        </arrival>
        <arrival publicID="quakeml:uw.anss.org/AssocArO/UW/17390918">
          <pickID>quakeml:uw.anss.org/Arrival/UW/17390918</pickID>
          <phase>P</phase>
          <timeCorrection>0.17</timeCorrection>
          <azimuth>152.18885145790284</azimuth>
          <distance>0.3621</distance>
          <takeoffAngle>
            <value>57.0</value>
          </takeoffAngle>
          <timeResidual>-0.25</timeResidual>
          <timeWeight>0.11</timeWeight>
          <creationInfo>
            <agencyID>UW</agencyID>
            <creationTime>2024-10-18T17:30:22.000000Z</creationTime>
          </creationInfo>
        </arrival>
        <arrival publicID="quakeml:uw.anss.org/AssocArO/UW/17390923">
          <pickID>quakeml:uw.anss.org/Arrival/UW/17390923</pickID>
          <phase>S</phase>
          <timeCorrection>0.3</timeCorrection>
          <azimuth>152.18885145790284</azimuth>
          <distance>0.3621</distance>
          <takeoffAngle>
            <value>57.0</value>
          </takeoffAngle>
          <timeResidual>0.36</timeResidual>
          <timeWeight>0.11</timeWeight>
          <creationInfo>
            <agencyID>UW</agencyID>
            <creationTime>2024-10-18T17:30:22.000000Z</creationTime>
          </creationInfo>
        </arrival>
        <arrival publicID="quakeml:uw.anss.org/AssocArO/UW/17390928">
          <pickID>quakeml:uw.anss.org/Arrival/UW/17390928</pickID>
          <phase>P</phase>
          <timeCorrection>0.07</timeCorrection>
          <azimuth>129.09965109533778</azimuth>
          <distance>0.4243</distance>
          <takeoffAngle>
            <value>57.0</value>
          </takeoffAngle>
          <timeResidual>-0.02</timeResidual>
          <timeWeight>0.11</timeWeight>
          <creationInfo>
            <agencyID>UW</agencyID>
            <creationTime>2024-10-18T17:30:22.000000Z</creationTime>
          </creationInfo>
        </arrival>
        <arrival publicID="quakeml:uw.anss.org/AssocArO/UW/17390933">
          <pickID>quakeml:uw.anss.org/Arrival/UW/17390933</pickID>
          <phase>P</phase>
          <timeCorrection>0.1</timeCorrection>
          <azimuth>178.67533019927623</azimuth>
          <distance>0.4381</distance>
          <takeoffAngle>
            <value>57.0</value>
          </takeoffAngle>
          <timeResidual>0.07</timeResidual>
          <timeWeight>0.11</timeWeight>
          <creationInfo>
            <agencyID>UW</agencyID>
            <creationTime>2024-10-18T17:30:22.000000Z</creationTime>
          </creationInfo>
        </arrival>
        <arrival publicID="quakeml:uw.anss.org/AssocArO/UW/17390938">
          <pickID>quakeml:uw.anss.org/Arrival/UW/17390938</pickID>
          <phase>S</phase>
          <timeCorrection>0.18</timeCorrection>
          <azimuth>178.67533019927623</azimuth>
          <distance>0.4381</distance>
          <takeoffAngle>
            <value>57.0</value>
          </takeoffAngle>
          <timeResidual>-0.26</timeResidual>
          <timeWeight>0.11</timeWeight>
          <creationInfo>
            <agencyID>UW</agencyID>
            <creationTime>2024-10-18T17:30:22.000000Z</creationTime>
          </creationInfo>
        </arrival>
        <arrival publicID="quakeml:uw.anss.org/AssocArO/UW/17390943">
          <pickID>quakeml:uw.anss.org/Arrival/UW/17390943</pickID>
          <phase>P</phase>
          <timeCorrection>0.0</timeCorrection>
          <azimuth>172.79458736196705</azimuth>
          <distance>0.5905</distance>
          <takeoffAngle>
            <value>57.0</value>
          </takeoffAngle>
          <timeResidual>0.78</timeResidual>
          <timeWeight>0.0</timeWeight>
          <creationInfo>
            <agencyID>UW</agencyID>
            <creationTime>2024-10-18T17:30:22.000000Z</creationTime>
          </creationInfo>
        </arrival>
        <arrival publicID="quakeml:uw.anss.org/AssocArO/UW/17390948">
          <pickID>quakeml:uw.anss.org/Arrival/UW/17390948</pickID>
          <phase>P</phase>
          <timeCorrection>0.07</timeCorrection>
          <azimuth>224.56793787343545</azimuth>
          <distance>0.619</distance>
          <takeoffAngle>
            <value>57.0</value>
          </takeoffAngle>
          <timeResidual>0.16</timeResidual>
          <timeWeight>0.11</timeWeight>
          <creationInfo>
            <agencyID>UW</agencyID>
            <creationTime>2024-10-18T17:30:22.000000Z</creationTime>
          </creationInfo>
        </arrival>
      </origin>
      <magnitude publicID="quakeml:uw.anss.org/Netmag/UW/3316573">
        <mag>
          <value>1.33</value>
          <uncertainty>0.11125391579518051</uncertainty>
        </mag>
        <type>Ml</type>
        <originID>quakeml:uw.anss.org/Origin/UW/3294923</originID>
        <methodID>smi:uw.anss.org/magnitude/RichterMl2</methodID>
        <stationCount>4</stationCount>
        <azimuthalGap>310.42432089606154</azimuthalGap>
        <evaluationMode>manual</evaluationMode>
        <evaluationStatus>reviewed</evaluationStatus>
        <stationMagnitudeContribution>
          <stationMagnitudeID>quakeml:uw.anss.org/AssocAmM/UW/16121458</stationMagnitudeID>
          <weight>1.0</weight>
          <residual>-0.05</residual>
        </stationMagnitudeContribution>
        <stationMagnitudeContribution>
          <stationMagnitudeID>quakeml:uw.anss.org/AssocAmM/UW/16121483</stationMagnitudeID>
          <weight>1.0</weight>
          <residual>-0.18</residual>
        </stationMagnitudeContribution>
        <stationMagnitudeContribution>
          <stationMagnitudeID>quakeml:uw.anss.org/AssocAmM/UW/16121488</stationMagnitudeID>
          <weight>1.0</weight>
          <residual>0.17</residual>
        </stationMagnitudeContribution>
        <stationMagnitudeContribution>
          <stationMagnitudeID>quakeml:uw.anss.org/AssocAmM/UW/16121463</stationMagnitudeID>
          <weight>1.0</weight>
          <residual>0.05</residual>
        </stationMagnitudeContribution>
        <stationMagnitudeContribution>
          <stationMagnitudeID>quakeml:uw.anss.org/AssocAmM/UW/16121468</stationMagnitudeID>
          <weight>1.0</weight>
          <residual>0.06</residual>
        </stationMagnitudeContribution>
        <stationMagnitudeContribution>
          <stationMagnitudeID>quakeml:uw.anss.org/AssocAmM/UW/16121473</stationMagnitudeID>
          <weight>0.0</weight>
          <residual>-0.32</residual>
        </stationMagnitudeContribution>
        <stationMagnitudeContribution>
          <stationMagnitudeID>quakeml:uw.anss.org/AssocAmM/UW/16121493</stationMagnitudeID>
          <weight>1.0</weight>
          <residual>-0.19</residual>
        </stationMagnitudeContribution>
        <stationMagnitudeContribution>
          <stationMagnitudeID>quakeml:uw.anss.org/AssocAmM/UW/16121478</stationMagnitudeID>
          <weight>0.0</weight>
          <residual>-0.13</residual>
        </stationMagnitudeContribution>
        <creationInfo>
          <agencyID>UW</agencyID>
          <creationTime>2024-10-18T17:30:23.000000Z</creationTime>
        </creationInfo>
      </magnitude>
      <stationMagnitude publicID="quakeml:uw.anss.org/AssocAmM/UW/16121458">
        <originID>quakeml:uw.anss.org/Origin/UW/3294923</originID>
        <mag>
          <value>1.28</value>
        </mag>
        <type>ML</type>
        <amplitudeID>quakeml:uw.anss.org/Amp/UW/16121458</amplitudeID>
        <waveformID networkCode="UW" stationCode="PASS" locationCode="" channelCode="ENE"></waveformID>
      </stationMagnitude>
      <stationMagnitude publicID="quakeml:uw.anss.org/AssocAmM/UW/16121463">
        <originID>quakeml:uw.anss.org/Origin/UW/3294923</originID>
        <mag>
          <value>1.38</value>
        </mag>
        <type>ML</type>
        <amplitudeID>quakeml:uw.anss.org/Amp/UW/16121463</amplitudeID>
        <waveformID networkCode="UW" stationCode="PASS" locationCode="" channelCode="HHN"></waveformID>
      </stationMagnitude>
      <stationMagnitude publicID="quakeml:uw.anss.org/AssocAmM/UW/16121468">
        <originID>quakeml:uw.anss.org/Origin/UW/3294923</originID>
        <mag>
          <value>1.39</value>
        </mag>
        <type>ML</type>
        <amplitudeID>quakeml:uw.anss.org/Amp/UW/16121468</amplitudeID>
        <waveformID networkCode="UW" stationCode="PASS" locationCode="" channelCode="HHE"></waveformID>
      </stationMagnitude>
      <stationMagnitude publicID="quakeml:uw.anss.org/AssocAmM/UW/16121473">
        <originID>quakeml:uw.anss.org/Origin/UW/3294923</originID>
        <mag>
          <value>1.01</value>
        </mag>
        <type>ML</type>
        <amplitudeID>quakeml:uw.anss.org/Amp/UW/16121473</amplitudeID>
        <waveformID networkCode="UW" stationCode="MBW2" locationCode="" channelCode="HHN"></waveformID>
      </stationMagnitude>
      <stationMagnitude publicID="quakeml:uw.anss.org/AssocAmM/UW/16121478">
        <originID>quakeml:uw.anss.org/Origin/UW/3294923</originID>
        <mag>
          <value>1.2</value>
        </mag>
        <type>ML</type>
        <amplitudeID>quakeml:uw.anss.org/Amp/UW/16121478</amplitudeID>
        <waveformID networkCode="UW" stationCode="MBW2" locationCode="" channelCode="HHE"></waveformID>
      </stationMagnitude>
      <stationMagnitude publicID="quakeml:uw.anss.org/AssocAmM/UW/16121483">
        <originID>quakeml:uw.anss.org/Origin/UW/3294923</originID>
        <mag>
          <value>1.15</value>
        </mag>
        <type>ML</type>
        <amplitudeID>quakeml:uw.anss.org/Amp/UW/16121483</amplitudeID>
        <waveformID networkCode="UW" stationCode="SHUK" locationCode="" channelCode="HHE"></waveformID>
      </stationMagnitude>
      <stationMagnitude publicID="quakeml:uw.anss.org/AssocAmM/UW/16121488">
        <originID>quakeml:uw.anss.org/Origin/UW/3294923</originID>
        <mag>
          <value>1.5</value>
        </mag>
        <type>ML</type>
        <amplitudeID>quakeml:uw.anss.org/Amp/UW/16121488</amplitudeID>
        <waveformID networkCode="UW" stationCode="SAXON" locationCode="" channelCode="HHN"></waveformID>
      </stationMagnitude>
      <stationMagnitude publicID="quakeml:uw.anss.org/AssocAmM/UW/16121493">
        <originID>quakeml:uw.anss.org/Origin/UW/3294923</originID>
        <mag>
          <value>1.14</value>
        </mag>
        <type>ML</type>
        <amplitudeID>quakeml:uw.anss.org/Amp/UW/16121493</amplitudeID>
        <waveformID networkCode="UW" stationCode="MULN" locationCode="" channelCode="HHE"></waveformID>
      </stationMagnitude>
      <pick publicID="quakeml:uw.anss.org/Arrival/UW/17390913">
        <time>
          <value>2024-10-17T22:58:36.340000Z</value>
          <uncertainty>0.3</uncertainty>
        </time>
        <waveformID networkCode="UW" stationCode="PASS" locationCode="" channelCode="HHZ"></waveformID>
        <onset>emergent</onset>
        <polarity>undecidable</polarity>
        <evaluationMode>manual</evaluationMode>
        <evaluationStatus>reviewed</evaluationStatus>
        <creationInfo>
          <agencyID>UW</agencyID>
          <creationTime>2024-10-18T17:30:22.000000Z</creationTime>
        </creationInfo>
      </pick>
      <pick publicID="quakeml:uw.anss.org/Arrival/UW/17390918">
        <time>
          <value>2024-10-17T22:58:40.670000Z</value>
          <uncertainty>0.15</uncertainty>
        </time>
        <waveformID networkCode="UW" stationCode="MBW2" locationCode="" channelCode="HHZ"></waveformID>
        <onset>emergent</onset>
        <polarity>undecidable</polarity>
        <evaluationMode>manual</evaluationMode>
        <evaluationStatus>reviewed</evaluationStatus>
        <creationInfo>
          <agencyID>UW</agencyID>
          <creationTime>2024-10-18T17:30:22.000000Z</creationTime>
        </creationInfo>
      </pick>
      <pick publicID="quakeml:uw.anss.org/Arrival/UW/17390923">
        <time>
          <value>2024-10-17T22:58:46.940000Z</value>
          <uncertainty>0.15</uncertainty>
        </time>
        <waveformID networkCode="UW" stationCode="MBW2" locationCode="" channelCode="HHE"></waveformID>
        <onset>emergent</onset>
        <polarity>undecidable</polarity>
        <evaluationMode>manual</evaluationMode>
        <evaluationStatus>reviewed</evaluationStatus>
        <creationInfo>
          <agencyID>UW</agencyID>
          <creationTime>2024-10-18T17:30:22.000000Z</creationTime>
        </creationInfo>
      </pick>
      <pick publicID="quakeml:uw.anss.org/Arrival/UW/17390928">
        <time>
          <value>2024-10-17T22:58:41.880000Z</value>
          <uncertainty>0.15</uncertainty>
        </time>
        <waveformID networkCode="UW" stationCode="SHUK" locationCode="" channelCode="HHZ"></waveformID>
        <onset>emergent</onset>
        <polarity>undecidable</polarity>
        <evaluationMode>manual</evaluationMode>
        <evaluationStatus>reviewed</evaluationStatus>
        <creationInfo>
          <agencyID>UW</agencyID>
          <creationTime>2024-10-18T17:30:22.000000Z</creationTime>
        </creationInfo>
      </pick>
      <pick publicID="quakeml:uw.anss.org/Arrival/UW/17390933">
        <time>
          <value>2024-10-17T22:58:42.240000Z</value>
          <uncertainty>0.15</uncertainty>
        </time>
        <waveformID networkCode="UW" stationCode="SAXON" locationCode="" channelCode="HHZ"></waveformID>
        <onset>emergent</onset>
        <polarity>undecidable</polarity>
        <evaluationMode>manual</evaluationMode>
        <evaluationStatus>reviewed</evaluationStatus>
        <creationInfo>
          <agencyID>UW</agencyID>
          <creationTime>2024-10-18T17:30:22.000000Z</creationTime>
        </creationInfo>
      </pick>
      <pick publicID="quakeml:uw.anss.org/Arrival/UW/17390938">
        <time>
          <value>2024-10-17T22:58:48.550000Z</value>
          <uncertainty>0.15</uncertainty>
        </time>
        <waveformID networkCode="UW" stationCode="SAXON" locationCode="" channelCode="HHE"></waveformID>
        <onset>emergent</onset>
        <polarity>undecidable</polarity>
        <evaluationMode>manual</evaluationMode>
        <evaluationStatus>reviewed</evaluationStatus>
        <creationInfo>
          <agencyID>UW</agencyID>
          <creationTime>2024-10-18T17:30:22.000000Z</creationTime>
        </creationInfo>
      </pick>
      <pick publicID="quakeml:uw.anss.org/Arrival/UW/17390943">
        <time>
          <value>2024-10-17T22:58:45.500000Z</value>
          <uncertainty>0.3</uncertainty>
        </time>
        <waveformID networkCode="UW" stationCode="MULN" locationCode="" channelCode="HHZ"></waveformID>
        <onset>emergent</onset>
        <polarity>undecidable</polarity>
        <evaluationMode>manual</evaluationMode>
        <evaluationStatus>reviewed</evaluationStatus>
        <creationInfo>
          <agencyID>UW</agencyID>
          <creationTime>2024-10-18T17:30:22.000000Z</creationTime>
        </creationInfo>
      </pick>
      <pick publicID="quakeml:uw.anss.org/Arrival/UW/17390948">
        <time>
          <value>2024-10-17T22:58:45.450000Z</value>
          <uncertainty>0.15</uncertainty>
        </time>
        <waveformID networkCode="UW" stationCode="MCW" locationCode="" channelCode="EHZ"></waveformID>
        <onset>emergent</onset>
        <polarity>undecidable</polarity>
        <evaluationMode>manual</evaluationMode>
        <evaluationStatus>reviewed</evaluationStatus>
        <creationInfo>
          <agencyID>UW</agencyID>
          <creationTime>2024-10-18T17:30:22.000000Z</creationTime>
        </creationInfo>
      </pick>
      <amplitude publicID="quakeml:uw.anss.org/Amp/UW/16121478">
        <genericAmplitude>
          <value>7.247e-05</value>
        </genericAmplitude>
        <type>AML</type>
        <category>point</category>
        <unit>m</unit>
        <waveformID networkCode="UW" stationCode="MBW2" locationCode="" channelCode="HHE"></waveformID>
        <magnitudeHint>ML</magnitudeHint>
        <evaluationMode>manual</evaluationMode>
        <evaluationStatus>reviewed</evaluationStatus>
      </amplitude>
      <amplitude publicID="quakeml:uw.anss.org/Amp/UW/16121473">
        <genericAmplitude>
          <value>4.6222e-05</value>
        </genericAmplitude>
        <type>AML</type>
        <category>point</category>
