<?xml version='1.0' encoding='utf-8'?>
<q:quakeml xmlns="http://quakeml.org/xmlns/bed/1.2" xmlns:q="http://quakeml.org/xmlns/quakeml/1.2" xmlns:ns0="http://anss.org/xmlns/catalog/0.1">
  <eventParameters publicID="smi:local/4b321aaa-44f6-4616-8e24-646fd37bc352">
    <event publicID="quakeml:uw.anss.org/Event/UW/62049537" ns0:datasource="uw" ns0:dataid="uw62049537" ns0:eventsource="uw" ns0:eventid="62049537">
      <preferredOriginID>quakeml:uw.anss.org/Origin/UW/3296768</preferredOriginID>
      <preferredMagnitudeID>quakeml:uw.anss.org/Netmag/UW/3319648</preferredMagnitudeID>
      <type>other event</type>
      <creationInfo>
        <agencyID>UW</agencyID>
        <creationTime>2024-11-01T22:30:38.000000Z</creationTime>
        <version>3</version>
      </creationInfo>
      <origin publicID="quakeml:uw.anss.org/Origin/UW/3296768" ns0:datasource="uw" ns0:dataid="uw62049537" ns0:eventsource="uw" ns0:eventid="62049537">
        <time>
          <value>2024-10-31T14:37:00.600000Z</value>
        </time>
        <latitude>
          <value>48.8008</value>
        </latitude>
        <longitude>
          <value>-121.9201</value>
        </longitude>
        <depth>
          <value>-1748.642</value>
        </depth>
        <depthType>operator assigned</depthType>
        <timeFixed>false</timeFixed>
        <epicenterFixed>false</epicenterFixed>
        <methodID>smi:uw.anss.org/origin/HAND</methodID>
        <quality>
          <associatedPhaseCount>0</associatedPhaseCount>
          <usedPhaseCount>0</usedPhaseCount>
          <associatedStationCount>2</associatedStationCount>
          <usedStationCount>0</usedStationCount>
          <minimumDistance>0.1689</minimumDistance>
          <maximumDistance>5.095e-05</maximumDistance>
          <medianDistance>0.08446</medianDistance>
        </quality>
        <type>hypocenter</type>
        <evaluationMode>manual</evaluationMode>
        <evaluationStatus>final</evaluationStatus>
        <creationInfo>
          <agencyID>UW</agencyID>
          <creationTime>2024-11-01T22:28:37.000000Z</creationTime>
        </creationInfo>
        <arrival publicID="quakeml:uw.anss.org/AssocArO/UW/17417188">
          <pickID>quakeml:uw.anss.org/Arrival/UW/17417188</pickID>
          <phase>P</phase>
          <distance>5.095e-05</distance>
          <creationInfo>
            <agencyID>UW</agencyID>
            <creationTime>2024-11-01T22:30:37.000000Z</creationTime>
          </creationInfo>
        </arrival>
        <arrival publicID="quakeml:uw.anss.org/AssocArO/UW/17417193">
          <pickID>quakeml:uw.anss.org/Arrival/UW/17417193</pickID>
          <phase>P</phase>
          <distance>0.1689</distance>
          <creationInfo>
            <agencyID>UW</agencyID>
            <creationTime>2024-11-01T22:30:37.000000Z</creationTime>
          </creationInfo>
        </arrival>
      </origin>
      <magnitude publicID="quakeml:uw.anss.org/Netmag/UW/3319648">
        <mag>
          <value>-5.0</value>
        </mag>
        <type>Mh</type>
        <originID>quakeml:uw.anss.org/Origin/UW/3296768</originID>
        <methodID>smi:uw.anss.org/magnitude/HAND</methodID>
        <stationCount>0</stationCount>
        <evaluationMode>manual</evaluationMode>
        <evaluationStatus>reviewed</evaluationStatus>
        <creationInfo>
          <agencyID>UW</agencyID>
          <creationTime>2024-11-01T22:30:38.000000Z</creationTime>
        </creationInfo>
      </magnitude>
      <pick publicID="quakeml:uw.anss.org/Arrival/UW/17417188">
        <time>
          <value>2024-10-31T14:37:01.600000Z</value>
          <uncertainty>0.06</uncertainty>
        </time>
        <waveformID networkCode="UW" stationCode="MBW2" locationCode="" channelCode="HHZ"></waveformID>
        <onset>impulsive</onset>
        <polarity>negative</polarity>
        <evaluationMode>manual</evaluationMode>
        <evaluationStatus>reviewed</evaluationStatus>
        <creationInfo>
          <agencyID>UW</agencyID>
          <creationTime>2024-11-01T22:30:37.000000Z</creationTime>
        </creationInfo>
      </pick>
      <pick publicID="quakeml:uw.anss.org/Arrival/UW/17417193">
        <time>
          <value>2024-10-31T14:37:03.420000Z</value>
          <uncertainty>0.06</uncertainty>
        </time>
        <waveformID networkCode="UW" stationCode="SHUK" locationCode="" channelCode="HHZ"></waveformID>
        <onset>impulsive</onset>
        <polarity>positive</polarity>
        <evaluationMode>manual</evaluationMode>
        <evaluationStatus>reviewed</evaluationStatus>
        <creationInfo>
          <agencyID>UW</agencyID>
          <creationTime>2024-11-01T22:30:37.000000Z</creationTime>
        </creationInfo>
      </pick>
    </event>
  </eventParameters>
</q:quakeml>
