<?xml version='1.0' encoding='utf-8'?>
<q:quakeml xmlns="http://quakeml.org/xmlns/bed/1.2" xmlns:q="http://quakeml.org/xmlns/quakeml/1.2" xmlns:ns0="http://anss.org/xmlns/catalog/0.1">
  <eventParameters publicID="smi:local/80e76ad3-8a8f-41d5-bb6c-bc5bc0bad44c">
    <event publicID="quakeml:uw.anss.org/Event/UW/62057241" ns0:datasource="uw" ns0:dataid="uw62057241" ns0:eventsource="uw" ns0:eventid="62057241">
      <preferredOriginID>quakeml:uw.anss.org/Origin/UW/3296388</preferredOriginID>
      <preferredMagnitudeID>quakeml:uw.anss.org/Netmag/UW/3319023</preferredMagnitudeID>
      <type>other event</type>
      <creationInfo>
        <agencyID>UW</agencyID>
        <creationTime>2024-10-28T05:14:03.000000Z</creationTime>
        <version>2</version>
      </creationInfo>
      <origin publicID="quakeml:uw.anss.org/Origin/UW/3296388" ns0:datasource="uw" ns0:dataid="uw62057241" ns0:eventsource="uw" ns0:eventid="62057241">
        <time>
          <value>2024-10-27T07:39:43.760000Z</value>
        </time>
        <latitude>
          <value>48.732166666666664</value>
        </latitude>
        <longitude>
          <value>-121.85816666666666</value>
        </longitude>
        <depth>
          <value>-800.0</value>
          <uncertainty>31610.0</uncertainty>
        </depth>
        <depthType>operator assigned</depthType>
        <timeFixed>false</timeFixed>
        <epicenterFixed>false</epicenterFixed>
        <methodID>smi:uw.anss.org/origin/HYP2000</methodID>
        <quality>
          <associatedPhaseCount>9</associatedPhaseCount>
          <usedPhaseCount>8</usedPhaseCount>
          <associatedStationCount>5</associatedStationCount>
          <usedStationCount>5</usedStationCount>
          <standardError>0.14</standardError>
          <azimuthalGap>115.0</azimuthalGap>
          <secondaryAzimuthalGap>571.0</secondaryAzimuthalGap>
          <minimumDistance>0.07994</minimumDistance>
          <maximumDistance>0.3621</maximumDistance>
          <medianDistance>0.2064</medianDistance>
        </quality>
        <type>hypocenter</type>
        <evaluationMode>manual</evaluationMode>
        <evaluationStatus>final</evaluationStatus>
        <creationInfo>
          <agencyID>UW</agencyID>
          <creationTime>2024-10-28T05:05:12.000000Z</creationTime>
        </creationInfo>
        <originUncertainty>
          <preferredDescription>confidence ellipsoid</preferredDescription>
          <horizontalUncertainty>410.0</horizontalUncertainty>
          <confidenceLevel>95.0</confidenceLevel>
          <confidenceEllipsoid>
            <semiMajorAxisLength>75864.0</semiMajorAxisLength>
            <semiMinorAxisLength>720.0</semiMinorAxisLength>
            <semiIntermediateAxisLength>984.0</semiIntermediateAxisLength>
            <majorAxisPlunge>90.0</majorAxisPlunge>
            <majorAxisAzimuth>0.0</majorAxisAzimuth>
            <majorAxisRotation>336.0</majorAxisRotation>
          </confidenceEllipsoid>
        </originUncertainty>
        <arrival publicID="quakeml:uw.anss.org/AssocArO/UW/17411723">
          <pickID>quakeml:uw.anss.org/Arrival/UW/17411723</pickID>
          <phase>P</phase>
          <timeCorrection>0.17</timeCorrection>
          <azimuth>329.27624631161433</azimuth>
          <distance>0.07994</distance>
          <takeoffAngle>
            <value>90.0</value>
          </takeoffAngle>
          <timeResidual>-0.06</timeResidual>
          <timeWeight>0.08</timeWeight>
          <creationInfo>
            <agencyID>UW</agencyID>
            <creationTime>2024-10-28T05:14:03.000000Z</creationTime>
          </creationInfo>
        </arrival>
        <arrival publicID="quakeml:uw.anss.org/AssocArO/UW/17411728">
          <pickID>quakeml:uw.anss.org/Arrival/UW/17411728</pickID>
          <phase>S</phase>
          <timeCorrection>0.3</timeCorrection>
          <azimuth>329.27624631161433</azimuth>
          <distance>0.07994</distance>
          <takeoffAngle>
            <value>90.0</value>
          </takeoffAngle>
          <timeResidual>-0.11</timeResidual>
          <timeWeight>0.08</timeWeight>
          <creationInfo>
            <agencyID>UW</agencyID>
            <creationTime>2024-10-28T05:14:03.000000Z</creationTime>
          </creationInfo>
        </arrival>
        <arrival publicID="quakeml:uw.anss.org/AssocArO/UW/17411733">
          <pickID>quakeml:uw.anss.org/Arrival/UW/17411733</pickID>
          <phase>P</phase>
          <timeCorrection>0.07</timeCorrection>
          <azimuth>44.60898063607999</azimuth>
          <distance>0.1701</distance>
          <takeoffAngle>
            <value>90.0</value>
          </takeoffAngle>
          <timeResidual>0.0</timeResidual>
          <timeWeight>0.11</timeWeight>
          <creationInfo>
            <agencyID>UW</agencyID>
            <creationTime>2024-10-28T05:14:03.000000Z</creationTime>
          </creationInfo>
        </arrival>
        <arrival publicID="quakeml:uw.anss.org/AssocArO/UW/17411738">
          <pickID>quakeml:uw.anss.org/Arrival/UW/17411738</pickID>
          <phase>S</phase>
          <timeCorrection>0.12</timeCorrection>
          <azimuth>44.60898063607999</azimuth>
          <distance>0.1701</distance>
          <takeoffAngle>
            <value>90.0</value>
          </takeoffAngle>
          <timeResidual>-0.12</timeResidual>
          <timeWeight>0.11</timeWeight>
          <creationInfo>
            <agencyID>UW</agencyID>
            <creationTime>2024-10-28T05:14:03.000000Z</creationTime>
          </creationInfo>
        </arrival>
        <arrival publicID="quakeml:uw.anss.org/AssocArO/UW/17411743">
          <pickID>quakeml:uw.anss.org/Arrival/UW/17411743</pickID>
          <phase>P</phase>
          <timeCorrection>0.1</timeCorrection>
          <azimuth>256.3627413936854</azimuth>
          <distance>0.2064</distance>
          <takeoffAngle>
            <value>90.0</value>
          </takeoffAngle>
          <timeResidual>0.23</timeResidual>
          <timeWeight>0.08</timeWeight>
          <creationInfo>
            <agencyID>UW</agencyID>
            <creationTime>2024-10-28T05:14:03.000000Z</creationTime>
          </creationInfo>
        </arrival>
        <arrival publicID="quakeml:uw.anss.org/AssocArO/UW/17411748">
          <pickID>quakeml:uw.anss.org/Arrival/UW/17411748</pickID>
          <phase>S</phase>
          <timeCorrection>0.18</timeCorrection>
          <azimuth>256.3627413936854</azimuth>
          <distance>0.2064</distance>
          <takeoffAngle>
            <value>90.0</value>
          </takeoffAngle>
          <timeResidual>-0.18</timeResidual>
          <timeWeight>0.11</timeWeight>
          <creationInfo>
            <agencyID>UW</agencyID>
            <creationTime>2024-10-28T05:14:03.000000Z</creationTime>
          </creationInfo>
        </arrival>
        <arrival publicID="quakeml:uw.anss.org/AssocArO/UW/17411753">
          <pickID>quakeml:uw.anss.org/Arrival/UW/17411753</pickID>
          <phase>P</phase>
          <timeCorrection>0.27</timeCorrection>
          <azimuth>330.7852116525504</azimuth>
          <distance>0.3057</distance>
          <takeoffAngle>
            <value>57.0</value>
          </takeoffAngle>
          <timeResidual>0.41</timeResidual>
          <timeWeight>0.0</timeWeight>
          <creationInfo>
            <agencyID>UW</agencyID>
            <creationTime>2024-10-28T05:14:03.000000Z</creationTime>
          </creationInfo>
        </arrival>
        <arrival publicID="quakeml:uw.anss.org/AssocArO/UW/17411758">
          <pickID>quakeml:uw.anss.org/Arrival/UW/17411758</pickID>
          <phase>S</phase>
          <timeCorrection>0.48</timeCorrection>
          <azimuth>330.7852116525504</azimuth>
          <distance>0.3057</distance>
          <takeoffAngle>
            <value>57.0</value>
          </takeoffAngle>
          <timeResidual>0.18</timeResidual>
          <timeWeight>0.11</timeWeight>
          <creationInfo>
            <agencyID>UW</agencyID>
            <creationTime>2024-10-28T05:14:03.000000Z</creationTime>
          </creationInfo>
        </arrival>
        <arrival publicID="quakeml:uw.anss.org/AssocArO/UW/17411763">
          <pickID>quakeml:uw.anss.org/Arrival/UW/17411763</pickID>
          <phase>P</phase>
          <timeCorrection>0.14</timeCorrection>
          <azimuth>142.51190022598803</azimuth>
          <distance>0.3621</distance>
          <takeoffAngle>
            <value>57.0</value>
          </takeoffAngle>
          <timeResidual>0.07</timeResidual>
          <timeWeight>0.11</timeWeight>
          <creationInfo>
            <agencyID>UW</agencyID>
            <creationTime>2024-10-28T05:14:03.000000Z</creationTime>
          </creationInfo>
        </arrival>
      </origin>
      <magnitude publicID="quakeml:uw.anss.org/Netmag/UW/3319023">
        <mag>
          <value>1.56</value>
          <uncertainty>0.04798025147700302</uncertainty>
        </mag>
        <type>Ml</type>
        <originID>quakeml:uw.anss.org/Origin/UW/3296388</originID>
        <methodID>smi:uw.anss.org/magnitude/RichterMl2</methodID>
        <stationCount>4</stationCount>
        <azimuthalGap>113.85084116769735</azimuthalGap>
        <evaluationMode>manual</evaluationMode>
        <evaluationStatus>reviewed</evaluationStatus>
        <stationMagnitudeContribution>
          <stationMagnitudeID>quakeml:uw.anss.org/AssocAmM/UW/16141173</stationMagnitudeID>
          <weight>1.0</weight>
          <residual>-0.0</residual>
        </stationMagnitudeContribution>
        <stationMagnitudeContribution>
          <stationMagnitudeID>quakeml:uw.anss.org/AssocAmM/UW/16141138</stationMagnitudeID>
          <weight>0.0</weight>
          <residual>-0.26</residual>
        </stationMagnitudeContribution>
        <stationMagnitudeContribution>
          <stationMagnitudeID>quakeml:uw.anss.org/AssocAmM/UW/16141163</stationMagnitudeID>
          <weight>1.0</weight>
          <residual>0.11</residual>
        </stationMagnitudeContribution>
        <stationMagnitudeContribution>
          <stationMagnitudeID>quakeml:uw.anss.org/AssocAmM/UW/16141183</stationMagnitudeID>
          <weight>1.0</weight>
          <residual>0.04</residual>
        </stationMagnitudeContribution>
        <stationMagnitudeContribution>
          <stationMagnitudeID>quakeml:uw.anss.org/AssocAmM/UW/16141188</stationMagnitudeID>
          <weight>1.0</weight>
          <residual>0.03</residual>
        </stationMagnitudeContribution>
        <stationMagnitudeContribution>
          <stationMagnitudeID>quakeml:uw.anss.org/AssocAmM/UW/16141203</stationMagnitudeID>
          <weight>0.0</weight>
          <residual>-0.42</residual>
        </stationMagnitudeContribution>
        <stationMagnitudeContribution>
          <stationMagnitudeID>quakeml:uw.anss.org/AssocAmM/UW/16141208</stationMagnitudeID>
          <weight>1.0</weight>
          <residual>-0.12</residual>
        </stationMagnitudeContribution>
        <stationMagnitudeContribution>
          <stationMagnitudeID>quakeml:uw.anss.org/AssocAmM/UW/16141143</stationMagnitudeID>
          <weight>0.0</weight>
          <residual>0.06</residual>
        </stationMagnitudeContribution>
        <stationMagnitudeContribution>
          <stationMagnitudeID>quakeml:uw.anss.org/AssocAmM/UW/16141178</stationMagnitudeID>
          <weight>1.0</weight>
          <residual>0.0</residual>
        </stationMagnitudeContribution>
        <stationMagnitudeContribution>
          <stationMagnitudeID>quakeml:uw.anss.org/AssocAmM/UW/16141168</stationMagnitudeID>
          <weight>1.0</weight>
          <residual>-0.08</residual>
        </stationMagnitudeContribution>
        <stationMagnitudeContribution>
          <stationMagnitudeID>quakeml:uw.anss.org/AssocAmM/UW/16141193</stationMagnitudeID>
          <weight>1.0</weight>
          <residual>0.1</residual>
        </stationMagnitudeContribution>
        <stationMagnitudeContribution>
          <stationMagnitudeID>quakeml:uw.anss.org/AssocAmM/UW/16141153</stationMagnitudeID>
          <weight>0.0</weight>
          <residual>0.06</residual>
        </stationMagnitudeContribution>
        <stationMagnitudeContribution>
          <stationMagnitudeID>quakeml:uw.anss.org/AssocAmM/UW/16141158</stationMagnitudeID>
          <weight>1.0</weight>
          <residual>-0.02</residual>
        </stationMagnitudeContribution>
        <stationMagnitudeContribution>
          <stationMagnitudeID>quakeml:uw.anss.org/AssocAmM/UW/16141148</stationMagnitudeID>
          <weight>0.0</weight>
          <residual>-0.22</residual>
        </stationMagnitudeContribution>
        <stationMagnitudeContribution>
          <stationMagnitudeID>quakeml:uw.anss.org/AssocAmM/UW/16141198</stationMagnitudeID>
          <weight>1.0</weight>
          <residual>-0.05</residual>
        </stationMagnitudeContribution>
        <creationInfo>
          <agencyID>UW</agencyID>
          <creationTime>2024-10-28T05:14:03.000000Z</creationTime>
        </creationInfo>
      </magnitude>
      <stationMagnitude publicID="quakeml:uw.anss.org/AssocAmM/UW/16141138">
        <originID>quakeml:uw.anss.org/Origin/UW/3296388</originID>
        <mag>
          <value>1.3</value>
        </mag>
        <type>ML</type>
        <amplitudeID>quakeml:uw.anss.org/Amp/UW/16141138</amplitudeID>
        <waveformID networkCode="UW" stationCode="MBW2" locationCode="" channelCode="ENN"></waveformID>
      </stationMagnitude>
      <stationMagnitude publicID="quakeml:uw.anss.org/AssocAmM/UW/16141143">
        <originID>quakeml:uw.anss.org/Origin/UW/3296388</originID>
        <mag>
          <value>1.62</value>
        </mag>
        <type>ML</type>
        <amplitudeID>quakeml:uw.anss.org/Amp/UW/16141143</amplitudeID>
        <waveformID networkCode="UW" stationCode="MBW2" locationCode="" channelCode="ENE"></waveformID>
      </stationMagnitude>
      <stationMagnitude publicID="quakeml:uw.anss.org/AssocAmM/UW/16141148">
        <originID>quakeml:uw.anss.org/Origin/UW/3296388</originID>
        <mag>
          <value>1.34</value>
        </mag>
        <type>ML</type>
        <amplitudeID>quakeml:uw.anss.org/Amp/UW/16141148</amplitudeID>
        <waveformID networkCode="UW" stationCode="MBW2" locationCode="" channelCode="HHN"></waveformID>
      </stationMagnitude>
      <stationMagnitude publicID="quakeml:uw.anss.org/AssocAmM/UW/16141153">
        <originID>quakeml:uw.anss.org/Origin/UW/3296388</originID>
        <mag>
          <value>1.62</value>
        </mag>
        <type>ML</type>
        <amplitudeID>quakeml:uw.anss.org/Amp/UW/16141153</amplitudeID>
        <waveformID networkCode="UW" stationCode="MBW2" locationCode="" channelCode="HHE"></waveformID>
      </stationMagnitude>
      <stationMagnitude publicID="quakeml:uw.anss.org/AssocAmM/UW/16141158">
        <originID>quakeml:uw.anss.org/Origin/UW/3296388</originID>
        <mag>
          <value>1.54</value>
        </mag>
        <type>ML</type>
        <amplitudeID>quakeml:uw.anss.org/Amp/UW/16141158</amplitudeID>
        <waveformID networkCode="UW" stationCode="SHUK" locationCode="" channelCode="HHN"></waveformID>
      </stationMagnitude>
      <stationMagnitude publicID="quakeml:uw.anss.org/AssocAmM/UW/16141163">
        <originID>quakeml:uw.anss.org/Origin/UW/3296388</originID>
        <mag>
          <value>1.67</value>
        </mag>
        <type>ML</type>
        <amplitudeID>quakeml:uw.anss.org/Amp/UW/16141163</amplitudeID>
        <waveformID networkCode="UW" stationCode="SHUK" locationCode="" channelCode="HHE"></waveformID>
      </stationMagnitude>
      <stationMagnitude publicID="quakeml:uw.anss.org/AssocAmM/UW/16141168">
        <originID>quakeml:uw.anss.org/Origin/UW/3296388</originID>
        <mag>
          <value>1.48</value>
        </mag>
        <type>ML</type>
        <amplitudeID>quakeml:uw.anss.org/Amp/UW/16141168</amplitudeID>
        <waveformID networkCode="UW" stationCode="SAXON" locationCode="" channelCode="ENN"></waveformID>
      </stationMagnitude>
      <stationMagnitude publicID="quakeml:uw.anss.org/AssocAmM/UW/16141173">
        <originID>quakeml:uw.anss.org/Origin/UW/3296388</originID>
        <mag>
          <value>1.56</value>
        </mag>
        <type>ML</type>
        <amplitudeID>quakeml:uw.anss.org/Amp/UW/16141173</amplitudeID>
        <waveformID networkCode="UW" stationCode="SAXON" locationCode="" channelCode="ENE"></waveformID>
      </stationMagnitude>
      <stationMagnitude publicID="quakeml:uw.anss.org/AssocAmM/UW/16141178">
        <originID>quakeml:uw.anss.org/Origin/UW/3296388</originID>
        <mag>
          <value>1.56</value>
        </mag>
        <type>ML</type>
        <amplitudeID>quakeml:uw.anss.org/Amp/UW/16141178</amplitudeID>
        <waveformID networkCode="UW" stationCode="SAXON" locationCode="" channelCode="HHN"></waveformID>
      </stationMagnitude>
      <stationMagnitude publicID="quakeml:uw.anss.org/AssocAmM/UW/16141183">
        <originID>quakeml:uw.anss.org/Origin/UW/3296388</originID>
        <mag>
          <value>1.6</value>
        </mag>
        <type>ML</type>
        <amplitudeID>quakeml:uw.anss.org/Amp/UW/16141183</amplitudeID>
        <waveformID networkCode="UW" stationCode="SAXON" locationCode="" channelCode="HHE"></waveformID>
      </stationMagnitude>
      <stationMagnitude publicID="quakeml:uw.anss.org/AssocAmM/UW/16141188">
        <originID>quakeml:uw.anss.org/Origin/UW/3296388</originID>
        <mag>
          <value>1.59</value>
        </mag>
        <type>ML</type>
        <amplitudeID>quakeml:uw.anss.org/Amp/UW/16141188</amplitudeID>
        <waveformID networkCode="UW" stationCode="PASS" locationCode="" channelCode="ENN"></waveformID>
      </stationMagnitude>
      <stationMagnitude publicID="quakeml:uw.anss.org/AssocAmM/UW/16141193">
        <originID>quakeml:uw.anss.org/Origin/UW/3296388</originID>
        <mag>
          <value>1.66</value>
        </mag>
        <type>ML</type>
        <amplitudeID>quakeml:uw.anss.org/Amp/UW/16141193</amplitudeID>
        <waveformID networkCode="UW" stationCode="PASS" locationCode="" channelCode="HHN"></waveformID>
      </stationMagnitude>
      <stationMagnitude publicID="quakeml:uw.anss.org/AssocAmM/UW/16141198">
        <originID>quakeml:uw.anss.org/Origin/UW/3296388</originID>
        <mag>
          <value>1.51</value>
        </mag>
        <type>ML</type>
        <amplitudeID>quakeml:uw.anss.org/Amp/UW/16141198</amplitudeID>
        <waveformID networkCode="UW" stationCode="PASS" locationCode="" channelCode="HHE"></waveformID>
      </stationMagnitude>
      <stationMagnitude publicID="quakeml:uw.anss.org/AssocAmM/UW/16141203">
        <originID>quakeml:uw.anss.org/Origin/UW/3296388</originID>
        <mag>
          <value>1.14</value>
        </mag>
        <type>ML</type>
        <amplitudeID>quakeml:uw.anss.org/Amp/UW/16141203</amplitudeID>
        <waveformID networkCode="UW" stationCode="RPW2" locationCode="" channelCode="HHN"></waveformID>
      </stationMagnitude>
      <stationMagnitude publicID="quakeml:uw.anss.org/AssocAmM/UW/16141208">
        <originID>quakeml:uw.anss.org/Origin/UW/3296388</originID>
        <mag>
          <value>1.44</value>
        </mag>
        <type>ML</type>
        <amplitudeID>quakeml:uw.anss.org/Amp/UW/16141208</amplitudeID>
        <waveformID networkCode="UW" stationCode="RPW2" locationCode="" channelCode="HHE"></waveformID>
      </stationMagnitude>
      <pick publicID="quakeml:uw.anss.org/Arrival/UW/17411723">
        <time>
          <value>2024-10-27T07:39:45.510000Z</value>
          <uncertainty>0.15</uncertainty>
        </time>
        <waveformID networkCode="UW" stationCode="MBW2" locationCode="" channelCode="HHZ"></waveformID>
        <onset>emergent</onset>
        <polarity>undecidable</polarity>
        <evaluationMode>manual</evaluationMode>
        <evaluationStatus>reviewed</evaluationStatus>
        <creationInfo>
          <agencyID>UW</agencyID>
